,source,title,address_line,city,postal_code,ph_no,state_name,state_code,country
0,Albertsons ,Texarkana - State Line & 39th,3710 State Line Ave,Texarkana,71854,(870) 774-3146,Arkansas,AR,United States
0,Albertsons ,Chandler - Riggs and Gilbert,2935 E Riggs Rd,Chandler,85249,(480) 802-1970,Arizona,AZ,United States
0,Albertsons ,Chandler - Queen Creek and Alma School,3145 S Alma School Rd,Chandler,85248,(480) 899-7102,Arizona,AZ,United States
0,Albertsons ,Chandler - McClintock and Ray,4060 W Ray Rd,Chandler,85226,(480) 491-1026,Arizona,AZ,United States
0,Albertsons ,Gilbert - Lindsay and Warner,861 E Warner Rd,Gilbert,85296,(480) 558-0105,Arizona,AZ,United States
0,Albertsons ,Glendale - 51st Ave and Cactus,5040 W Cactus Rd,Glendale,85304,(602) 843-1871,Arizona,AZ,United States
0,Albertsons ,Lake Havasu City Mccullock,1980 Mcculloch Blvd,Lake Havasu City,86403,(928) 854-5300,Arizona,AZ,United States
0,Albertsons ,Indian School and Dysart,12970 W Indian School Rd,Litchfield Park,85340,(623) 535-7991,Arizona,AZ,United States
0,Albertsons ,Mesa - Baseline and Dobson,1951 W Baseline Rd,Mesa,85202,(480) 456-4373,Arizona,AZ,United States
0,Albertsons ,Mesa - Power and McDowell,2727 N Power Rd,Mesa,85215,(480) 396-9282,Arizona,AZ,United States
0,Albertsons ,Mesa - Broadway and Power,325 S Power Rd,Mesa,85206,(480) 924-9001,Arizona,AZ,United States
0,Albertsons ,Mesa - Val Vista and University,441 N Val Vista Dr,Mesa,85213,(480) 830-5132,Arizona,AZ,United States
0,Albertsons ,Mesa - Baseline and Ellsworth,9243 E Baseline Rd,Mesa,85209,(480) 986-3060,Arizona,AZ,United States
0,Albertsons ,Peoria - 83rd Avenue and Deer Valley,8240 W Deer Valley Rd,Peoria,85382,(623) 572-5744,Arizona,AZ,United States
0,Albertsons ,Peoria - Bell and 91st,8950 W Bell Rd,Peoria,85382,(623) 876-8103,Arizona,AZ,United States
0,Albertsons ,Phoenix - Cave Creek and Union Hills,18411 N Cave Creek Rd,Phoenix,85032,(602) 494-7388,Arizona,AZ,United States
0,Albertsons ,Phoenix - Tatum Blvd and Deer Valley,21001 N Tatum Blvd Suite 76,Phoenix,85050,(480) 342-8231,Arizona,AZ,United States
0,Albertsons ,Phoenix - Carefree Hwy and I - 17,3130 W Carefree Hwy,Phoenix,85086,(623) 582-4985,Arizona,AZ,United States
0,Albertsons ,Phoenix - 19th Avenue and Northern,8035 N 19th Ave,Phoenix,85021,(602) 678-0895,Arizona,AZ,United States
0,Albertsons ,Scottsdale,11475 E Via Linda,Scottsdale,85259,(480) 767-0819,Arizona,AZ,United States
0,Albertsons ,Scottsdale - Thomas and Scottsdale,2785 N Scottsdale Rd,Scottsdale,85257,(480) 947-6977,Arizona,AZ,United States
0,Albertsons ,Scottsdale - Hayden and Indian Bend,6965 N Hayden Rd,Scottsdale,85250,(480) 991-9707,Arizona,AZ,United States
0,Albertsons ,Surprise - Grand and Reems,14551 W Grand Ave,Surprise,85374,(623) 546-8038,Arizona,AZ,United States
0,Albertsons ,Tucson - Silverbell,1350 N Silverbell Rd,Tucson,85745,(520) 623-7449,Arizona,AZ,United States
0,Albertsons ,Tucson - Campbell and Glenn,2854 N Campbell Ave,Tucson,85719,(520) 321-1212,Arizona,AZ,United States
0,Albertsons ,Tucson - River and La Canada,5085 N La Canada Dr,Tucson,85704,(520) 696-0325,Arizona,AZ,United States
0,Albertsons ,Tucson - Grant and Tanque Verde,6600 E Grant Rd,Tucson,85715,(520) 885-6109,Arizona,AZ,United States
0,Albertsons ,Tucson - Lacholla and Ina,7300 N La Cholla Blvd,Tucson,85741,(520) 575-0993,Arizona,AZ,United States
0,Albertsons ,Tucson - Broadway and Harrison,9595 E Broadway,Tucson,85748,(520) 751-7699,Arizona,AZ,United States
0,Albertsons ,Yuma - 24th Street and Avenue B,2378 W 24th St,Yuma,85364,(928) 343-2330,Arizona,AZ,United States
0,Albertsons ,Yuma - 32nd,252 W 32nd St,Yuma,85364,(928) 726-9500,Arizona,AZ,United States
0,Albertsons ,Commonwealth & Fremont,2400 W Commonwealth Ave,Alhambra,91803,(626) 293-7100,California,CA,United States
0,Albertsons ,Alpine Blvd & S Grade Rd,2955 Alpine Blvd,Alpine,91901,(619) 445-0231,California,CA,United States
0,Albertsons ,State College & South,810 S State College Blvd,Anaheim,92806,(714) 533-4790,California,CA,United States
0,Albertsons ,Hwy 18 & Thunderbird,20261 Hwy 18,Apple Valley,92307,(760) 242-3660,California,CA,United States
0,Albertsons ,Tyler & Live Oak,298 E Live Oak Ave,Arcadia,91006,(626) 446-1416,California,CA,United States
0,Albertsons ,Hwy 58 & Allen,13045 Rosedale Hwy,Bakersfield,93314,(661) 587-0153,California,CA,United States
0,Albertsons ,Chester & Brundage,1520 Brundage Ln,Bakersfield,93304,(661) 328-0818,California,CA,United States
0,Albertsons ,Columbus & Mt Vernon,2691 Mt Vernon Ave,Bakersfield,93306,(661) 872-3511,California,CA,United States
0,Albertsons ,Wilba & Panama,3500 Panama Ln,Bakersfield,93313,(661) 827-0394,California,CA,United States
0,Albertsons ,Coffee & Olive,6045 Coffee Rd,Bakersfield,93308,(661) 587-2870,California,CA,United States
0,Albertsons ,White and Gosford,7900 White Ln,Bakersfield,93309,(661) 836-9691,California,CA,United States
0,Albertsons ,Stockdale & Coffee,8200 E Stockdale Hwy,Bakersfield,93311,(661) 833-6071,California,CA,United States
0,Albertsons ,Banning,300 S Highland Springs Ave #7,Banning,92220,(951) 769-1779,California,CA,United States
0,Albertsons ,Blythe,840 E Hobson Way,Blythe,92225,(760) 922-4099,California,CA,United States
0,Albertsons ,Kraemer & Imperial Hwy,2500 E Imperial Hwy,Brea,92821,(714) 671-1180,California,CA,United States
0,Albertsons ,Buellton,222 E Hwy 246,Buellton,93427,(805) 693-1069,California,CA,United States
0,Albertsons ,Lincoln & Valley View,8880 Valley View St,Buena Park,90620,(714) 236-8200,California,CA,United States
0,Albertsons ,Agoura Rd & Las Virgenes,26521 Agoura Rd,Calabasas,91302,(818) 880-9080,California,CA,United States
0,Albertsons ,Casitas Pass & Carpinteria,1018 Casitas Pass Rd,Carpinteria,93013,(805) 684-4815,California,CA,United States
0,Albertsons ,Carson & Main Streets,110 E Carson St,Carson,90745,(310) 835-6402,California,CA,United States
0,Albertsons ,Sepulveda & Main,200 E Sepulveda Blvd,Carson,90745,(310) 513-1900,California,CA,United States
0,Albertsons ,Los Serranos & Soquel Canyon,15970 Los Serranos Country Club Dr,Chino Hills,91709,(909) 606-8184,California,CA,United States
0,Albertsons ,Chino Hills,3255 Grand Ave,Chino Hills,91709,(909) 590-3660,California,CA,United States
0,Albertsons ,Central & Philadelphia,12013 Central Ave,Chino,91710,(909) 464-1594,California,CA,United States
0,Albertsons ,3rd & J Street,720 3rd Ave,Chula Vista,91910,(619) 498-5160,California,CA,United States
0,Albertsons ,Ontario & Rimpau,1260 E Ontario Ave,Corona,92881,(951) 734-8451,California,CA,United States
0,Albertsons ,Foothill Pkwy & Main,260 W Foothill Pkwy,Corona,92882,(951) 340-1425,California,CA,United States
0,Albertsons ,Schleisman & Archibald,7070 Archibald Ave,Corona,92880,(951) 279-0333,California,CA,United States
0,Albertsons ,Del Obispo & Stonehill,33601 Del Obispo St,Dana Point,92629,(949) 496-7900,California,CA,United States
0,Albertsons ,Diamond Bar & Grand,1235 S Diamond Bar Blvd,Diamond Bar,91765,(909) 861-6207,California,CA,United States
0,Albertsons ,Firestone and Rives,7676 Firestone Blvd,Downey,90241,(562) 869-9670,California,CA,United States
0,Albertsons ,El Cajon,1608 Broadway St,El Cajon,92021,(619) 579-3127,California,CA,United States
0,Albertsons ,Jamacha Rd & Campo Rd,2899 Jamacha Rd,El Cajon,92019,(619) 660-9717,California,CA,United States
0,Albertsons ,East Valley Parkway & Rose,1509 E Valley Pkwy,Escondido,92027,(760) 735-5131,California,CA,United States
0,Albertsons ,9th & Valley,1570 W Valley Pkwy,Escondido,92029,(760) 738-1669,California,CA,United States
0,Albertsons ,Mission & Ammunition,1133 S Mission Rd,Fallbrook,92028,(760) 723-8177,California,CA,United States
0,Albertsons ,Brookhurst & Edinger,16061 Brookhurst St,Fountain Valley,92708,(714) 531-0417,California,CA,United States
0,Albertsons ,Brookhurst & Ellis,18579 Brookhurst,Fountain Valley,92708,(714) 963-7503,California,CA,United States
0,Albertsons ,N Placentia & Yorba Linda,1930 N Placentia Ave,Fullerton,92831,(714) 792-2880,California,CA,United States
0,Albertsons ,Gilbert & Malvern,2291 W Malvern Ave,Fullerton,92833,(714) 992-6099,California,CA,United States
0,Albertsons ,Artesia & Western,1735 W Artesia Blvd,Gardena,90248,(310) 380-4620,California,CA,United States
0,Albertsons ,Alosta & Glendora,133 W Route 66,Glendora,91740,(626) 963-5358,California,CA,United States
0,Albertsons ,Calle Real & Fairview,5801 Calle Real,Goleta,93117,(805) 964-2318,California,CA,United States
0,Albertsons ,Hollister & Pacific Oaks,7127 Hollister Ave #27,Goleta,93117,(805) 968-3558,California,CA,United States
0,Albertsons ,Boulder & Baseline,7201 Boulder Ave,Highland,92346,(909) 425-9100,California,CA,United States
0,Albertsons ,Bolsa Chica & Heil,16600 Bolsa Chica St,Huntington Beach,92649,(714) 846-9431,California,CA,United States
0,Albertsons ,Beach & Adams,19640 Beach Blvd,Huntington Beach,92648,(714) 964-7979,California,CA,United States
0,Albertsons ,Yorktown,7201 Yorktown Ave,Huntington Beach,92648,(714) 536-6449,California,CA,United States
0,Albertsons ,Jeffrey & Trabuco,14201 Jeffrey Rd,Irvine,92620,(949) 733-0698,California,CA,United States
0,Albertsons ,Culver & Alton,3825 Alton Pkwy,Irvine,92606,(949) 476-1922,California,CA,United States
0,Albertsons ,Irvine & Culver Blvd,3931 Irvine Blvd,Irvine,92602,(714) 734-5655,California,CA,United States
0,Albertsons ,Irvine,4541 Campus Dr,Irvine,92612,(949) 854-8282,California,CA,United States
0,Albertsons ,Shady Oak Canyon & I - 405,6601 Quail Hill Pkwy,Irvine,92603,(949) 509-6109,California,CA,United States
0,Albertsons ,Whittier & Beach,1800 W Whittier Blvd,La Habra,90631,(562) 697-6442,California,CA,United States
0,Albertsons ,Fletcher Parkway,8920 Fletcher Pkwy,La Mesa,91942,(619) 667-4343,California,CA,United States
0,Albertsons ,Rosecrans & La Mirada Blvd,15200 Rosecrans Ave,La Mirada,90638,(714) 521-2310,California,CA,United States
0,Albertsons ,Crown Valley & Antonio,27702 Crown Valley Pkwy Suite B,Ladera Ranch,92694,(949) 364-2040,California,CA,United States
0,Albertsons ,Alicia & Niguel,29941 Alicia Pkwy,Laguna Niguel,92677,(949) 495-1891,California,CA,United States
0,Albertsons ,Golden Lantern & Marina Hills,30241 Golden Lantern,Laguna Niguel,92677,(949) 363-0456,California,CA,United States
0,Albertsons ,North Lake Elsinore,30901 Riverside Dr,Lake Elsinore,92530,(951) 245-4461,California,CA,United States
0,Albertsons ,Muirlands & Ridge Route,24251 Muirlands Blvd,Lake Forest,92630,(949) 581-1642,California,CA,United States
0,Albertsons ,Winter Gardens & Winter Crest,9560 Winter Gardens Blvd,Lakeside,92040,(619) 561-5521,California,CA,United States
0,Albertsons ,Del Amo & Clark,5015 Del Amo Blvd,Lakewood,90712,(562) 634-0405,California,CA,United States
0,Albertsons ,20th Street West & Ave K,43543 20th St W,Lancaster,93534,(661) 940-4747,California,CA,United States
0,Albertsons ,Broadway & Massachusetts,7090 Broadway,Lemon Grove,91945,(619) 463-4418,California,CA,United States
0,Albertsons ,Lompoc,1500 N H St,Lompoc,93436,(805) 736-3948,California,CA,United States
0,Albertsons ,East Willow,101 E Willow St,Long Beach,90806,(562) 988-8785,California,CA,United States
0,Albertsons ,Hillhurst & Ambrose,2035 Hillhurst Ave,Los Angeles,90027,(323) 660-0687,California,CA,United States
0,Albertsons ,Crenshaw & Martin Luther King,3901 Crenshaw Blvd,Los Angeles,90008,(323) 295-1919,California,CA,United States
0,Albertsons ,Alicia & Olympiad,23072 Alicia Pkwy,Mission Viejo,92692,(949) 583-7337,California,CA,United States
0,Albertsons ,Montebello,2469 Via Campo St,Montebello,90640,(323) 888-2250,California,CA,United States
0,Albertsons ,Morro Bay,730 Quintana Rd,Morro Bay,93442,(805) 772-0670,California,CA,United States
0,Albertsons ,I - 215 & Scott Road,28047 Scott Rd,Murrieta,92563,(951) 246-1586,California,CA,United States
0,Albertsons ,Hwy 79 & Murrieta,39140 Winchester Rd,Murrieta,92563,(951) 600-4461,California,CA,United States
0,Albertsons ,Murrieta,41000 California Oaks Rd,Murrieta,92562,(951) 600-1027,California,CA,United States
0,Albertsons ,Newbury Park,541 S Reino Rd,Newbury Park,91320,(805) 499-7795,California,CA,United States
0,Albertsons ,Nordhoff & Balboa,9022 Balboa Blvd,Northridge,91325,(818) 894-6415,California,CA,United States
0,Albertsons ,Marron & College,3450 Marron Rd,Oceanside,92056,(760) 729-3468,California,CA,United States
0,Albertsons ,Mission & Douglas,3925 Mission Ave,Oceanside,92058,(760) 433-8107,California,CA,United States
0,Albertsons ,Oceanside & College,4150 Oceanside Blvd,Oceanside,92056,(760) 940-8282,California,CA,United States
0,Albertsons ,Chapman & Hewes,4550 E Chapman Ave,Orange,92869,(714) 771-3139,California,CA,United States
0,Albertsons ,Chapman & Jamboree,8440 E Chapman Ave,Orange,92869,(714) 771-6996,California,CA,United States
0,Albertsons ,Tustin & Collins,940 N Tustin Ave,Orange,92867,(714) 633-2570,California,CA,United States
0,Albertsons ,Orcutt,1120 E Clark Ave,Orcutt,93455,(805) 934-4472,California,CA,United States
0,Albertsons ,Washington & 42nd Streets,42095 Washington St,Palm Desert,92211,(760) 360-6322,California,CA,United States
0,Albertsons ,Highway 111 & Deep Canyon Rd,74590 Hwy 111,Palm Desert,92260,(760) 346-2566,California,CA,United States
0,Albertsons ,Sunrise & Vista Chino,1751 N Sunrise Way #1,Palm Springs,92262,(760) 778-6576,California,CA,United States
0,Albertsons ,Tierra Subida & Lake Elizabeth,38727 Tierra Subida Ave,Palmdale,93551,(661) 274-9557,California,CA,United States
0,Albertsons ,Paso Robles,189 Niblick Rd,Paso Robles,93446,(805) 237-1626,California,CA,United States
0,Albertsons ,Main & 14th St,1459 Main St,Ramona,92065,(760) 789-0023,California,CA,United States
0,Albertsons ,Milliken & Highland,11358 Kenyon Way,Rancho Cucamonga,91701,(909) 941-7166,California,CA,United States
0,Albertsons ,Foothill,8850 Foothill Blvd,Rancho Cucamonga,91730,(909) 484-7237,California,CA,United States
0,Albertsons ,Monterey & Country Club,40101 Monterey Ave,Rancho Mirage,92270,(760) 674-4769,California,CA,United States
0,Albertsons ,Cypress & Redlands Blvd,450 E Cypress Ave,Redlands,92373,(909) 792-1114,California,CA,United States
0,Albertsons ,Tampa & Saticoy,19307 Saticoy St,Reseda,91335,(818) 772-0010,California,CA,United States
0,Albertsons ,Ridgecrest,1301 N Norma St,Ridgecrest,93555,(760) 446-2544,California,CA,United States
0,Albertsons ,China Lake & Bowman,927 S China Lake Blvd,Ridgecrest,93555,(760) 384-4015,California,CA,United States
0,Albertsons ,Van Buren & Lincoln,2975 Van Buren Blvd,Riverside,92503,(951) 689-2252,California,CA,United States
0,Albertsons ,Van Buren & Trautwein,8938 Trautwein Rd,Riverside,92508,(951) 656-6603,California,CA,United States
0,Albertsons ,Rosamond,2547 Rosamond,Rosamond,93560,(661) 256-0756,California,CA,United States
0,Albertsons ,Avenida Pico & Presidio,804 Avenida Pico,San Clemente,92673,(949) 492-1755,California,CA,United States
0,Albertsons ,Ave Pico & Ave La Plata,989 Avendia Pico,San Clemente,92673,(949) 369-5466,California,CA,United States
0,Albertsons ,Rancho,12475 Rancho Bernardo Rd,San Diego,92128,(858) 385-9223,California,CA,United States
0,Albertsons ,14th & Market,655 14th St,San Diego,92101,(619) 237-1247,California,CA,United States
0,Albertsons ,Lake Murray & Navajo,8650 Lake Murray Blvd,San Diego,92119,(619) 697-8896,California,CA,United States
0,Albertsons ,San Dimas,220 E Bonita Ave,San Dimas,91773,(909) 599-8836,California,CA,United States
0,Albertsons ,Woodland & Mission,151 Woodland Pkwy,San Marcos,92069,(760) 736-8880,California,CA,United States
0,Albertsons ,San Elijo & Elfin Forest,1571 San Elijo Rd S,San Marcos,92078,(760) 798-1058,California,CA,United States
0,Albertsons ,Rancho Santa Fe & San Marcos B,1929 W San Marcos Blvd,San Marcos,92078,(760) 598-7272,California,CA,United States
0,Albertsons ,San Padro - South Western,28090 S Western Ave,San Pedro,90732,(310) 831-1323,California,CA,United States
0,Albertsons ,17th & Tustin,2000 E 17th St,Santa Ana,92705,(714) 541-9100,California,CA,United States
0,Albertsons ,Broadway & McCoy,2320 S Broadway,Santa Maria,93454,(805) 346-2077,California,CA,United States
0,Albertsons ,Bouquet Cyn & Haskell Cyn,27631 W Bouquet Canyon Rd,Saugus,91350,(661) 296-9655,California,CA,United States
0,Albertsons ,Madera & Royal,1268 Madera Rd,Simi Valley,93065,(805) 520-9306,California,CA,United States
0,Albertsons ,Sweetwater Rd & Hwy 54,543 Sweetwater Rd,Spring Valley,91977,(619) 461-5700,California,CA,United States
0,Albertsons ,Campo & Bonita,9831 Campo Rd,Spring Valley,91977,(619) 462-6290,California,CA,United States
0,Albertsons ,Hwy 33 & 10th Street,1044 W Kern St,Taft,93268,(661) 765-4944,California,CA,United States
0,Albertsons ,Tehachapi,775 S Tucker Rd,Tehachapi,93561,(661) 823-7090,California,CA,United States
0,Albertsons ,Rancho Calif Rd & Margarita,30530 Rancho California Rd,Temecula,92591,(951) 694-0244,California,CA,United States
0,Albertsons ,Hwy 79 & Margarita Rd,31960 Temecula Pkwy,Temecula,92592,(951) 303-1133,California,CA,United States
0,Albertsons ,Foothill & Lowell,6240 Foothill Blvd,Tujunga,91042,(818) 248-2745,California,CA,United States
0,Albertsons ,1st & Newport,13270 Newport Ave,Tustin,92780,(714) 544-8525,California,CA,United States
0,Albertsons ,Upland,1910 N Campus Ave,Upland,91784,(909) 946-4447,California,CA,United States
0,Albertsons ,Copperhill & Rancho Ave Tesoro,23850 Copperhill Dr,Valencia,91354,(661) 775-0163,California,CA,United States
0,Albertsons ,Vista & Foothill Bobier,1301 E Vista Way,Vista,92084,(760) 806-2785,California,CA,United States
0,Albertsons ,Melrose & Live Oak,1601 S Melrose Dr,Vista,92081,(760) 598-0142,California,CA,United States
0,Albertsons ,Westminster & Golden West,6755 Westminster Blvd,Westminster,92683,(714) 898-3668,California,CA,United States
0,Albertsons ,I - 15 & Clinton Keith,23893 Clinton Keith Rd,Wildomar,92595,(951) 600-4607,California,CA,United States
0,Albertsons ,Durango,311 W College Dr,Durango,81301,(970) 382-2224,Colorado,CO,United States
0,Albertsons ,Pueblo - Highway 50 and Outlook,1601 Hwy 50 W,Pueblo,81008,(719) 543-5671,Colorado,CO,United States
0,Albertsons ,Hitt & 17th,1901 S 25th E,Ammon,83406,(208) 524-8100,Idaho,ID,United States
0,Albertsons ,Overland & Five Mile,10500 W Overland Rd,Boise,83709,(208) 377-0932,Idaho,ID,United States
0,Albertsons ,Lake Hazel,10565 W Lake Hazel Rd,Boise,83709,(208) 319-0880,Idaho,ID,United States
0,Albertsons ,Five Mile & Ustick,10700 W Ustick Rd,Boise,83713,(208) 322-7744,Idaho,ID,United States
0,Albertsons ,Broadway,1219 S Broadway Ave,Boise,83706,(208) 336-5278,Idaho,ID,United States
0,Albertsons ,Cole Road,1520 N Cole Rd,Boise,83704,(208) 375-2542,Idaho,ID,United States
0,Albertsons ,16th & State,1650 W State St,Boise,83702,(208) 342-5651,Idaho,ID,United States
0,Albertsons ,Vista & Overland,1653 S Vista Ave,Boise,83705,(208) 331-1953,Idaho,ID,United States
0,Albertsons ,36th & State,3614 W State St,Boise,83703,(208) 426-9614,Idaho,ID,United States
0,Albertsons ,Eagle & McMillan,4700 N Eagle Rd,Boise,83713,(208) 939-5145,Idaho,ID,United States
0,Albertsons ,Overland & Orchard,5100 W Overland Rd,Boise,83705,(208) 336-1372,Idaho,ID,United States
0,Albertsons ,Columbia Village,6560 S Federal Way,Boise,83716,(208) 429-1084,Idaho,ID,United States
0,Albertsons ,Gary Lane,7100 W State St,Boise,83714,(208) 342-2756,Idaho,ID,United States
0,Albertsons ,Parkcenter & Apple,909 E Parkcenter Blvd,Boise,83706,(208) 345-3180,Idaho,ID,United States
0,Albertsons ,East Caldwell,2500 Blaine St,Caldwell,83605,(208) 454-1271,Idaho,ID,United States
0,Albertsons ,Caldwell,415 Cleveland Blvd,Caldwell,83605,(208) 459-3411,Idaho,ID,United States
0,Albertsons ,Coeur D Alene,220 Ironwood Dr,Coeur d'Alene,83814,(208) 664-9101,Idaho,ID,United States
0,Albertsons ,Eagle,250 S Eagle Rd,Eagle,83616,(208) 939-9850,Idaho,ID,United States
0,Albertsons ,Emmett,640 Hwy 16,Emmett,83617,(208) 365-4420,Idaho,ID,United States
0,Albertsons ,Hailey,911 N Main St,Hailey,83333,(208) 788-6709,Idaho,ID,United States
0,Albertsons ,Hayden Lake,161 W Prairie Ave,Hayden,83835,(208) 772-7473,Idaho,ID,United States
0,Albertsons ,Homedale,20 E Wyoming Ave,Homedale,83628,(208) 337-4679,Idaho,ID,United States
0,Albertsons ,Skyline,1705 W Broadway St,Idaho Falls,83402,(208) 522-3392,Idaho,ID,United States
0,Albertsons ,17th Street,590 E 17th St,Idaho Falls,83404,(208) 523-0950,Idaho,ID,United States
0,Albertsons ,Kuna,700 E Avalon St,Kuna,83634,(208) 922-9834,Idaho,ID,United States
0,Albertsons ,Lewiston,1024 21st St,Lewiston,83501,(208) 743-1561,Idaho,ID,United States
0,Albertsons ,McCall,132 E Lake St,McCall,83638,(208) 634-8166,Idaho,ID,United States
0,Albertsons ,Meridian,20 E Fairview Ave,Meridian,83642,(208) 888-4792,Idaho,ID,United States
0,Albertsons ,Cherry & Ten Mile,3301 W Cherry Ln,Meridian,83642,(208) 884-5471,Idaho,ID,United States
0,Albertsons Market Street ,Eagle and Fairview,3499 E Fairview Ave,Meridian,83642,(208) 605-3752,Idaho,ID,United States
0,Albertsons ,Meridian,528 N Main St,Mountain Home,83647,(208) 587-5460,Idaho,ID,United States
0,Albertsons ,Greenhurst & 12th,2400 12th Ave Rd,Nampa,83686,(208) 465-6597,Idaho,ID,United States
0,Albertsons ,Nampa,715 12th Ave S,Nampa,83651,(208) 466-2481,Idaho,ID,United States
0,Albertsons ,Payette,405 S 8th St,Payette,83661,(208) 642-9075,Idaho,ID,United States
0,Albertsons ,4th & Benton,330 E Benton St,Pocatello,83201,(208) 233-0455,Idaho,ID,United States
0,Albertsons ,Rexburg,490 N 2nd E,Rexburg,83440,(208) 356-0555,Idaho,ID,United States
0,Albertsons ,Twin Falls,1221 Addison Ave E,Twin Falls,83301,(208) 733-3573,Idaho,ID,United States
0,Albertsons ,Alexandria,2265 S MacArthur Dr,Alexandria,71301,(318) 487-9395,Louisiana,LA,United States
0,Albertsons ,Baton Rouge - Airline and Highland,15128 Airline Hwy,Baton Rouge,70817,(225) 751-2808,Louisiana,LA,United States
0,Albertsons ,Baton Rouge - Coursey and Jones Creek,15232 George O'Neal Rd,Baton Rouge,70817,(225) 753-0700,Louisiana,LA,United States
0,Albertsons ,Baton Rouge - College & I-10,2950 College Dr,Baton Rouge,70808,(225) 924-6084,Louisiana,LA,United States
0,Albertsons ,Baton Rouge - Government and Foster,4857 Government St,Baton Rouge,70806,(225) 216-7226,Louisiana,LA,United States
0,Albertsons ,Baton Rouge - Perkins and Essen,7515 Perkins Rd,Baton Rouge,70808,(225) 769-6100,Louisiana,LA,United States
0,Albertsons ,Baton Rouge - Airline and Old Hammond,9650 Airline Hwy,Baton Rouge,70815,(225) 926-9304,Louisiana,LA,United States
0,Albertsons ,Baton Rouge - Bluebonnet and Burbank,9960 Bluebonnet Blvd,Baton Rouge,70810,(225) 768-7775,Louisiana,LA,United States
0,Albertsons ,Broussard,1210 Albertson Pkwy,Broussard,70518,(337) 839-1717,Louisiana,LA,United States
0,Albertsons ,Hammond,1801 W Thomas St,Hammond,70401,(985) 542-9720,Louisiana,LA,United States
0,Albertsons ,Lafayette - Johnston,2678 Johnston St,Lafayette,70503,(337) 233-2940,Louisiana,LA,United States
0,Albertsons ,Lafayette - Ambassador Caffery and Congress,2863 Ambassador Caffery,Lafayette,70506,(337) 406-8887,Louisiana,LA,United States
0,Albertsons ,Lafayette - Ambassador Caffery,4400 Ambassador Caffery,Lafayette,70508,(337) 984-4587,Louisiana,LA,United States
0,Albertsons ,Lake Charles - Country Club and Ihles,2750 Country Club Rd,Lake Charles,70605,(337) 480-0424,Louisiana,LA,United States
0,Albertsons ,Lake Charles,4060 Ryan St S,Lake Charles,70605,(337) 478-8995,Louisiana,LA,United States
0,Albertsons ,Shreveport - Southfield & Kings Highway,105 E Southfield Rd,Shreveport,71105,(318) 869-1646,Louisiana,LA,United States
0,Albertsons ,Anaconda,1300 E Park Ave,Anaconda,59711,(406) 563-5238,Montana,MT,United States
0,Albertsons ,Belgrade,6999 Jackrabbit Ln,Belgrade,59714,(406) 388-0901,Montana,MT,United States
0,Albertsons ,13th & Grand,1212 Grand Ave,Billings,59102,(406) 245-4118,Montana,MT,United States
0,Albertsons ,24th Central,2334 Central Ave,Billings,59102,(406) 656-8160,Montana,MT,United States
0,Albertsons ,Grand & Rehberg,3137 Grand Ave,Billings,59102,(406) 652-8370,Montana,MT,United States
0,Albertsons ,6th & Central,511 Central Ave,Billings,59102,(406) 245-0115,Montana,MT,United States
0,Albertsons ,27th Street,611 N 27th St,Billings,59101,(406) 248-7474,Montana,MT,United States
0,Albertsons ,Billings Heights,670 Main St,Billings,59105,(406) 245-8792,Montana,MT,United States
0,Albertsons ,West Bozeman,200 S 23rd Ave,Bozeman,59718,(406) 586-4785,Montana,MT,United States
0,Albertsons ,Cut Bank,501 W Main St,Cut Bank,59427,(406) 873-5035,Montana,MT,United States
0,Albertsons ,Glasgow,54181 US Hwy 2,Glasgow,59230,(406) 228-8252,Montana,MT,United States
0,Albertsons ,Glendive,307 N Harmon St,Glendive,59330,(406) 365-3324,Montana,MT,United States
0,Albertsons ,3rd NW,1414 3rd St NW,Great Falls,59404,(406) 761-6800,Montana,MT,United States
0,Albertsons ,10th Avenue,2250 10th Ave S,Great Falls,59405,(406) 727-3700,Montana,MT,United States
0,Albertsons ,Hamilton,1313 N 1st St,Hamilton,59840,(406) 363-4555,Montana,MT,United States
0,Albertsons ,Harlem,117 Main St S,Harlem,59526,(406) 353-2225,Montana,MT,United States
0,Albertsons ,Montana & Custer,3151 N Montana Ave,Helena,59602,(406) 443-8557,Montana,MT,United States
0,Albertsons ,Helena,600 Fee St,Helena,59601,(406) 442-1052,Montana,MT,United States
0,Albertsons ,Kalispell,900 W Idaho St,Kalispell,59901,(406) 257-7127,Montana,MT,United States
0,Albertsons ,Lewistown,117 W Janeaux St,Lewistown,59457,(406) 538-5454,Montana,MT,United States
0,Albertsons ,Livingston,2120 W Park St,Livingston,59047,(406) 222-1177,Montana,MT,United States
0,Albertsons ,Malta,30 S 3rd St E,Malta,59538,(406) 654-2041,Montana,MT,United States
0,Albertsons ,Miles City,519 S Haynes Ave,Miles City,59301,(406) 232-2580,Montana,MT,United States
0,Albertsons ,East Broadway,1003 E Broadway St,Missoula,59802,(406) 549-2351,Montana,MT,United States
0,Albertsons ,Oxford,2205 Oxford St,Missoula,59801,(406) 549-5105,Montana,MT,United States
0,Albertsons ,North Reserve,2230 N Reserve St,Missoula,59808,(406) 728-1116,Montana,MT,United States
0,Albertsons ,Russell & Higgins,3800 Russell St,Missoula,59801,(406) 549-1547,Montana,MT,United States
0,Albertsons ,Tooele,130 5th Ave N,Shelby,59474,(406) 434-5581,Montana,MT,United States
0,Albertsons ,Wolf Point,415 Blaine St,Wolf Point,59201,(406) 653-1700,Montana,MT,United States
0,Albertsons ,Williston,20 26th St E,Williston,58801,(701) 572-1097,North Dakota,ND,United States
0,Albertsons ,Main St,4909 E Main St,Farmington,87402,(505) 325-1486,New Mexico,NM,United States
0,Albertsons ,Gallup - Zecca Plaza,1702 E 66th Ave,Gallup,87301,(505) 722-4457,New Mexico,NM,United States
0,Albertsons ,Las Cruces - Las Cruces,1285 S El Paseo Rd,Las Cruces,88001,(575) 523-5538,New Mexico,NM,United States
0,Albertsons ,Las Cruces - North Las Cruces,2501 N Main St,Las Cruces,88001,(575) 524-1980,New Mexico,NM,United States
0,Albertsons ,Las Cruces - Telshor and Lohman,2551 E Lohman Ave,Las Cruces,88011,(575) 521-9837,New Mexico,NM,United States
0,Albertsons ,Silver City,1956 Hwy 180 E,Silver City,88061,(575) 388-1909,New Mexico,NM,United States
0,Albertsons ,Boulder City,1008 Nevada Hwy,Boulder City,89005,(702) 293-7611,Nevada,NV,United States
0,Albertsons ,Elko,2582 Idaho St,Elko,89801,(775) 738-8016,Nevada,NV,United States
0,Albertsons ,Henderson - Boulder Hwy,190 N Boulder Hwy,Henderson,89015,(702) 565-3068,Nevada,NV,United States
0,Albertsons ,Stephanie & Horizon,201 S Stephanie St,Henderson,89012,(702) 269-1502,Nevada,NV,United States
0,Albertsons ,Anthem & Bicentennial,2910 Bicentennial Pkwy,Henderson,89044,(702) 567-1023,Nevada,NV,United States
0,Albertsons ,College & Horizon,575 College Dr,Henderson,89015,(702) 568-0115,Nevada,NV,United States
0,Albertsons ,Rainbow & Charleston,1001 S Rainbow Blvd,Las Vegas,89145,(702) 877-3338,Nevada,NV,United States
0,Albertsons ,Hualapai & Flamingo,10140 W Flamingo Rd,Las Vegas,89147,(702) 562-1745,Nevada,NV,United States
0,Albertsons ,Charleston & Town Center,10250 W Charleston Blvd,Las Vegas,89135,(702) 838-4322,Nevada,NV,United States
0,Albertsons ,Desert Foothills & Charleston Blvd,11720 W Charleston Blvd,Las Vegas,89135,(702) 363-1153,Nevada,NV,United States
0,Albertsons ,Flamingo & Maryland,1300 E Flamingo Rd,Las Vegas,89119,(702) 733-2947,Nevada,NV,United States
0,Albertsons ,Vegas & Buffalo,1650 N Buffalo Dr,Las Vegas,89128,(702) 562-6079,Nevada,NV,United States
0,Albertsons ,Charleston & Burnham,1760 E Charleston Blvd,Las Vegas,89104,(702) 366-1550,Nevada,NV,United States
0,Albertsons ,Las Vegas - Village Center Cir,1940 Village Center Circle,Las Vegas,89134,(702) 341-0308,Nevada,NV,United States
0,Albertsons ,Fort Apache & Sahara,2550 S Fort Apache Rd,Las Vegas,89117,(702) 242-1138,Nevada,NV,United States
0,Albertsons ,Vegas Valley & Nellis,2835 S Nellis Blvd,Las Vegas,89121,(702) 457-1491,Nevada,NV,United States
0,Albertsons ,Desert Inn & Pecos,2885 E Desert Inn Rd,Las Vegas,89121,(702) 792-7156,Nevada,NV,United States
0,Albertsons ,Flamingo & Durango,4055 S Durango Dr,Las Vegas,89147,(702) 869-1474,Nevada,NV,United States
0,Albertsons ,Blue Diamond and Decatur,4800 Blue Diamond Rd,Las Vegas,89139,(702) 260-0318,Nevada,NV,United States
0,Albertsons ,Craig & Decatur,4850 W Craig Rd,Las Vegas,89130,(702) 515-1455,Nevada,NV,United States
0,Albertsons ,Boulder Hwy,5500 Boulder Hwy,Las Vegas,89122,(702) 435-6777,Nevada,NV,United States
0,Albertsons ,Sloan & Charleston,5881 E Charleston Blvd,Las Vegas,89142,(702) 457-1400,Nevada,NV,United States
0,Albertsons ,Tropicana & Jones,5975 W Tropicana Ave,Las Vegas,89103,(702) 889-2000,Nevada,NV,United States
0,Albertsons ,N Hualapai Way,6730 N Hualapai Way,Las Vegas,89149,(702) 670-4942,Nevada,NV,United States
0,Albertsons ,E Lake Mead,6885 E Lake Mead Blvd,Las Vegas,89156,(702) 453-0845,Nevada,NV,United States
0,Albertsons ,Ann & Drexel,7075 W Ann Rd,Las Vegas,89130,(702) 839-2727,Nevada,NV,United States
0,Albertsons ,Tenaya & Craig,7151 W Craig Rd,Las Vegas,89129,(702) 839-9034,Nevada,NV,United States
0,Albertsons ,Eastern & Warm Springs,7271 S Eastern Ave,Las Vegas,89119,(702) 269-7166,Nevada,NV,United States
0,Albertsons ,Rainbow & Warm Springs,7350 S Rainbow Blvd,Las Vegas,89139,(702) 739-1033,Nevada,NV,United States
0,Albertsons ,Las Vegas  - Blue Diamond,7975 Blue Diamond Rd,Las Vegas,89178,(702) 614-4221,Nevada,NV,United States
0,Albertsons ,W Cheyenne & Soaring Gulls Dr,8350 W Cheyenne Ave,Las Vegas,89129,(702) 395-2700,Nevada,NV,United States
0,Albertsons ,El Capitan & Farm,8410 Farm Rd,Las Vegas,89131,(702) 658-2030,Nevada,NV,United States
0,Albertsons ,Silverado & Maryland,9725 S Maryland Pkwy,Las Vegas,89183,(702) 616-1946,Nevada,NV,United States
0,Albertsons ,North Las Vegas - Ann & Simmons,3010 W Ann Rd,North Las Vegas,89031,(702) 656-3103,Nevada,NV,United States
0,Albertsons ,Albertsons -  6041,200 S Hwy 160,Pahrump,89048,(775) 751-0160,Nevada,NV,United States
0,Albertsons ,Aloha,6055 SW 185th Ave,Aloha,97078,(503) 642-7059,Oregon,OR,United States
0,Albertsons ,Ashland,2301 Ashland St,Ashland,97520,(541) 482-6320,Oregon,OR,United States
0,Albertsons ,Campbell,1120 Campbell St,Baker City,97814,(541) 524-0412,Oregon,OR,United States
0,Albertsons ,1800 NE,1800 NE 3rd St,Bend,97701,(541) 382-3661,Oregon,OR,United States
0,Albertsons ,Bend,61155 S Hwy 97,Bend,97702,(541) 382-3600,Oregon,OR,United States
0,Albertsons ,Central Point,1360 Plaza Blvd,Central Point,97502,(541) 665-3761,Oregon,OR,United States
0,Albertsons ,Eugene,1675 W 18th Ave,Eugene,97402,(541) 485-7027,Oregon,OR,United States
0,Albertsons ,Hilyard,3075 Hilyard St,Eugene,97405,(541) 687-1742,Oregon,OR,United States
0,Albertsons ,Coburg & Oakmont,311 Coburg Rd,Eugene,97401,(541) 342-7635,Oregon,OR,United States
0,Albertsons ,Royal & Danebo,4740 Royal Ave,Eugene,97402,(541) 688-6497,Oregon,OR,United States
0,Albertsons ,Division & River Road,55 Division Ave,Eugene,97404,(541) 689-3960,Oregon,OR,United States
0,Albertsons ,Allen Creek,1690 Allen Creek Rd,Grants Pass,97527,(541) 471-2148,Oregon,OR,United States
0,Albertsons ,219th & Baseline,7500 SW Baseline Rd,Hillsboro,97123,(503) 591-7557,Oregon,OR,United States
0,Albertsons ,25th & Cornell,888 NE 25th Ave,Hillsboro,97124,(503) 681-8927,Oregon,OR,United States
0,Albertsons ,Klamath Falls,5500 S 6th St,Klamath Falls,97603,(541) 882-7239,Oregon,OR,United States
0,Albertsons ,Boones,16199 Boones Ferry Rd,Lake Oswego,97035,(503) 635-3429,Oregon,OR,United States
0,Albertsons ,Baker & Keck,615 SW Keck Dr,McMinnville,97128,(503) 474-1087,Oregon,OR,United States
0,Albertsons ,Jacksonville & Ross,113 Ross Ln,Medford,97501,(541) 858-5937,Oregon,OR,United States
0,Albertsons ,Barnett & Phoenix,910 N Phoenix Rd,Medford,97504,(541) 770-7050,Oregon,OR,United States
0,Albertsons ,West Ontario,1410 Westpark Plaza,Ontario,97914,(541) 889-9123,Oregon,OR,United States
0,Albertsons ,Oregon City,19007 S Beavercreek Rd,Oregon City,97045,(503) 657-3248,Oregon,OR,United States
0,Albertsons ,West Union & 185th,18425 NW West Union Rd,Portland,97229,(503) 533-5998,Oregon,OR,United States
0,Albertsons ,181st & Glisan,451 NE 181st St,Portland,97230,(503) 666-3801,Oregon,OR,United States
0,Albertsons ,Shattuck,5415 SW Beaverton Hwy,Portland,97221,(503) 246-1713,Oregon,OR,United States
0,Albertsons ,Cully,5850 NE Prescott,Portland,97218,(503) 284-5083,Oregon,OR,United States
0,Albertsons ,Edenbower & Stewart,3013 NW Stewart Pkwy,Roseburg,97471,(541) 957-9224,Oregon,OR,United States
0,Albertsons ,Springfield,2000 Marcola Rd,Springfield,97477,(541) 746-8850,Oregon,OR,United States
0,Albertsons ,East Springfield,5755 S Main St,Springfield,97478,(541) 746-1653,Oregon,OR,United States
0,Albertsons ,Barrows,14300 SW Barrows Rd,Tigard,97223,(503) 590-0543,Oregon,OR,United States
0,Albertsons ,Troutdale,25691 SE Stark,Troutdale,97060,(503) 667-1722,Oregon,OR,United States
0,Albertsons ,Arlington - Southwest Plaza,301 SW Plaza Shopping Center,Arlington,76016,(817) 478-4291,Texas,TX,United States
0,Albertsons ,Arlington - Cooper & Sublett,5950 S Cooper St,Arlington,76017,(817) 557-0185,Texas,TX,United States
0,Albertsons ,Arlington - Sublett & Hwy 287,6220 US Hwy 287,Arlington,76001,(817) 478-8901,Texas,TX,United States
0,Albertsons ,Azle,480 Northwest Pkwy,Azle,76020,(817) 270-1116,Texas,TX,United States
0,Albertsons ,Bedford - Airport Freeway,1300 Airport Freeway,Bedford,76022,(817) 354-0622,Texas,TX,United States
0,Albertsons ,Burleson,833 NE Alsbury Blvd,Burleson,76028,(817) 447-9106,Texas,TX,United States
0,Albertsons ,Carrollton - Josey Lane,2150 N Josey Ln,Carrollton,75006,(972) 446-8226,Texas,TX,United States
0,Albertsons ,Cedar Hill,427 E FM 1382,Cedar Hill,75104,(972) 291-9863,Texas,TX,United States
0,Albertsons ,Cleburne,210 W Katherine P Raines,Cleburne,76033,(817) 641-2002,Texas,TX,United States
0,Albertsons ,Colleyville - Glade Rd,4000 Glade Rd,Colleyville,76034,(817) 354-0505,Texas,TX,United States
0,Albertsons ,Corinth,4351 FM 2181,Corinth,76210,(940) 321-4540,Texas,TX,United States
0,Albertsons ,Dallas - Buckner & Garland,320 Casa Linda Plaza,Dallas,75218,(214) 319-7919,Texas,TX,United States
0,Albertsons ,Dallas - Dallas Parkway & Frankford,4625 Frankford Rd,Dallas,75287,(972) 732-6291,Texas,TX,United States
0,Albertsons ,Denison Crawford Street,200 W Crawford St,Denison,75020,(903) 463-6076,Texas,TX,United States
0,Albertsons ,Denton - University & Bonnie Brae,2321 W University Dr,Denton,76201,(940) 383-2391,Texas,TX,United States
0,Albertsons ,El Paso - Kenworth and Patriot,10765 Kenworthy,El Paso,79924,(915) 821-2006,Texas,TX,United States
0,Albertsons ,El Paso - Montwood and George Dieter,11320 Montwood Dr,El Paso,79936,(915) 855-9761,Texas,TX,United States
0,Albertsons ,El Paso - Yarbrough and Montwood,2200 Yarbrough Dr,El Paso,79925,(915) 591-9477,Texas,TX,United States
0,Albertsons ,El Paso - Mesa and Gregory,3100 Mesa St,El Paso,79902,(915) 351-1002,Texas,TX,United States
0,Albertsons ,El Paso - Montana and Chelsea,5200 Montana Ave,El Paso,79903,(915) 778-8996,Texas,TX,United States
0,Albertsons ,El Paso - I - 10 and Redd,5630 N Desert Blvd,El Paso,79912,(915) 845-5069,Texas,TX,United States
0,Albertsons ,El Paso - Mesa and Resler,7022 N Mesa St,El Paso,79912,(915) 584-9460,Texas,TX,United States
0,Albertsons ,Euless - Harwood & Main,1155 N Main St,Euless,76039,(817) 354-9195,Texas,TX,United States
0,Albertsons ,Fort Worth - Sycamore School & McCart,3525 Sycamore School Rd,Fort Worth,76133,(817) 346-6497,Texas,TX,United States
0,Albertsons ,Fort Worth - Alton Road & S Hill Ave,3563 Alton Rd,Fort Worth,76109,(817) 548-1415,Texas,TX,United States
0,Albertsons ,Fort Worth - Beach & Western Center,4400 Western Center Blvd,Fort Worth,76137,(817) 232-2180,Texas,TX,United States
0,Albertsons ,Fort Worth - I-30 & Green Oaks,6700 W Freeway,Fort Worth,76116,(817) 377-8074,Texas,TX,United States
0,Albertsons ,Fort Worth - Bryant Irvin & Oakmont,7400 Oakmont Blvd,Fort Worth,76132,(817) 423-9556,Texas,TX,United States
0,Albertsons ,Fort Worth - I-820 & John T White,850 E Loop 820,Fort Worth,76112,(817) 451-0306,Texas,TX,United States
0,Albertsons ,Fort Worth - I-820 & Clifford,9300 Clifford St,Fort Worth,76108,(817) 246-3366,Texas,TX,United States
0,Albertsons ,Garland Broadway Blvd,5710 Broadway Blvd,Garland,75043,(972) 240-7339,Texas,TX,United States
0,Albertsons ,Grand Prairie - Carrier & Main,215 N Carrier Pkwy,Grand Prairie,75050,(972) 642-6555,Texas,TX,United States
0,Albertsons ,Lake Worth,6308 Lake Worth Blvd,Lake Worth,76135,(817) 237-8124,Texas,TX,United States
0,Albertsons ,Longview - McCann & Loop 281,3603 McCann Rd,Longview,75605,(903) 663-2082,Texas,TX,United States
0,Albertsons ,McKinney - US 75 & El Dorado,3001 S Central Expy,McKinney,75070,(972) 548-1003,Texas,TX,United States
0,Albertsons ,Mesquite - Bruton & Beltline,1500 S Beltline Rd,Mesquite,75149,(972) 285-0226,Texas,TX,United States
0,Albertsons ,Mesquite - Motley & Town East,2828 Motley Dr,Mesquite,75150,(972) 270-2406,Texas,TX,United States
0,Albertsons ,Richardson - Richardson,2165 E Buckingham Dr,Richardson,75081,(972) 680-1711,Texas,TX,United States
0,Albertsons ,Saginaw - Bus Hwy 287 & Bailey Boswell,1201 N Saginaw Blvd,Saginaw,76179,(817) 232-2777,Texas,TX,United States
0,Albertsons ,Sherman - Taylor Street,100 E Taylor St,Sherman,75092,(903) 868-9686,Texas,TX,United States
0,Albertsons ,Texarkana - Highway 59 & Highway 67,4415 W 7th St,Texarkana,75501,(903) 831-7226,Texas,TX,United States
0,Albertsons ,Watauga,6249 Rufe Snow Dr,Watauga,76148,(817) 428-0541,Texas,TX,United States
0,Albertsons ,Weatherford - Spring Street,225 E Spring St,Weatherford,76086,(817) 594-9390,Texas,TX,United States
0,Albertsons ,Saint George - Santa Clara,745 N Dixie Dr,Saint George,84770,(435) 688-7156,Utah,UT,United States
0,Albertsons ,Redcliffs,915 Redcliffs Dr,Washington,84780,(435) 628-0424,Utah,UT,United States
0,Albertsons ,Auburn,4010 A St,Auburn,98002,(253) 939-1850,Washington,WA,United States
0,Albertsons ,Battle Ground,2108 W Main St,Battle Ground,98604,(360) 687-4130,Washington,WA,United States
0,Albertsons ,Clarkston,400 Bridge St,Clarkston,99403,(509) 758-5523,Washington,WA,United States
0,Albertsons ,128th & I - 5,520 128th St SW,Everett,98204,(425) 347-3681,Washington,WA,United States
0,Albertsons ,Gig Harbor,11330 NW 51st Ave,Gig Harbor,98332,(253) 853-4750,Washington,WA,United States
0,Albertsons ,West Kennewick,5204 W Clearwater Ave,Kennewick,99336,(509) 783-1457,Washington,WA,United States
0,Albertsons ,Kingston,8196 NE Hwy 104,Kingston,98346,(360) 297-1800,Washington,WA,United States
0,Albertsons ,Pacific,17171 Bothell Way NE,Lake Forest Park,98155,(206) 363-5397,Washington,WA,United States
0,Albertsons ,Marysville,301 Marysville Mall #60,Marysville,98270,(360) 659-5841,Washington,WA,United States
0,Albertsons ,Thomas Lake,3322 132nd St SE,Mill Creek,98012,(425) 338-0775,Washington,WA,United States
0,Albertsons ,Redmond,3520 Pacific Ave SE,Olympia,98501,(360) 459-9340,Washington,WA,United States
0,Albertsons ,Pasco,1330 N 20th Ave,Pasco,99301,(509) 547-8858,Washington,WA,United States
0,Albertsons ,Port Orchard,1434 Olney Ave SE,Port Orchard,98366,(360) 895-2292,Washington,WA,United States
0,Albertsons ,Sedgwick & Sidney,370 SW Sedgwick Rd,Port Orchard,98367,(360) 876-2085,Washington,WA,United States
0,Albertsons ,Summit,11012 Canyon Rd E,Puyallup,98373,(253) 537-3770,Washington,WA,United States
0,Albertsons ,Steilacoom,3925 236th Ave NE,Redmond,98053,(425) 836-8112,Washington,WA,United States
0,Albertsons ,Sunset Blvd,4621 NE Sunset Blvd,Renton,98059,(425) 271-2564,Washington,WA,United States
0,Albertsons ,Leslie & Gage,690 Gage Blvd,Richland,99352,(509) 627-4714,Washington,WA,United States
0,Albertsons ,Magnolia,2550 32nd Ave W,Seattle,98199,(206) 283-9434,Washington,WA,United States
0,Albertsons ,Snohomish,17520 SR 9 SE,Snohomish,98296,(360) 668-1132,Washington,WA,United States
0,Albertsons ,Highway 27 & 32nd Ave,13606 E 32nd Ave,Spokane,99216,(509) 892-2112,Washington,WA,United States
0,Albertsons ,57th & Regal,3010 E 57th Ave,Spokane,99223,(509) 443-6403,Washington,WA,United States
0,Albertsons ,Francis & Nevada,6520 N Nevada,Spokane,99208,(509) 489-1250,Washington,WA,United States
0,Albertsons ,Millwood,8851 E Trent Ave,Spokane,99212,(509) 924-9014,Washington,WA,United States
0,Albertsons ,Barnes & Indian Trails,9001 N Indian Trail Rd,Spokane,99208,(509) 465-8110,Washington,WA,United States
0,Albertsons ,152nd & Pacific,104 Military Rd,Tacoma,98444,(253) 538-1688,Washington,WA,United States
0,Albertsons ,Miller,8611 Steilacoom Blvd SW,Tacoma,98498,(253) 582-5844,Washington,WA,United States
0,Albertsons ,Tumwater,705 Trosper Rd SW,Tumwater,98512,(360) 705-3569,Washington,WA,United States
0,Albertsons ,Salmon Creek,14300 NE 20th Ave,Vancouver,98686,(360) 576-4066,Washington,WA,United States
0,Albertsons ,Wilbur,450 N Wilbur Ave,Walla Walla,99362,(509) 529-1710,Washington,WA,United States
0,Albertsons ,Bothell,1128 N Miller St,Wenatchee,98801,(509) 663-8547,Washington,WA,United States
0,Albertsons ,Casper - Westridge,1076 CY Ave,Casper,82604,(307) 266-0136,Wyoming,WY,United States
0,Albertsons ,Casper - Hilltop,2625 E 2nd St,Casper,82609,(307) 237-9361,Wyoming,WY,United States
0,Albertsons ,Cheyenne - Pershing,3355 E Pershing Blvd,Cheyenne,82001,(307) 635-1151,Wyoming,WY,United States
0,Albertsons ,Cheyenne - Yellowstone,5800 Yellowstone Rd,Cheyenne,82009,(307) 637-8171,Wyoming,WY,United States
0,Albertsons ,Cody,1825 17th St,Cody,82414,(307) 527-7007,Wyoming,WY,United States
0,Albertsons ,Gillette,2610 S Douglas Hwy,Gillette,82718,(307) 686-7352,Wyoming,WY,United States
0,Albertsons ,Jackson,105 Buffalo Way,Jackson,83001,(307) 733-5950,Wyoming,WY,United States
0,Albertsons ,Rock Springs,1323 Dewar Dr,Rock Springs,82901,(307) 362-8386,Wyoming,WY,United States
0,Albertsons ,Sheridan,1865 Coffeen Ave,Sheridan,82801,(307) 672-8909,Wyoming,WY,United States
