,source,title,address_line,city,postal_code,ph_no,state_name,state_code,country
0,Jewel-Osco ,Second & 13th Ave,1307 N 2nd St,Clinton,52732,(563) 243-6995,Iowa,IA,United States
0,Jewel-Osco ,Lake & Addison,140 W Lake St,Addison,60101,(630) 543-0521,Illinois,IL,United States
0,Jewel-Osco ,Randall & Route 62,103 S Randall Rd,Algonquin,60102,(847) 854-7020,Illinois,IL,United States
0,Jewel-Osco ,Sandbloom & Algonquin,1501 E Algonquin Rd,Algonquin,60102,(847) 658-5635,Illinois,IL,United States
0,Jewel-Osco ,Crawford & 121st St,12001 S Pulaski Rd,Alsip,60803,(708) 371-3460,Illinois,IL,United States
0,Jewel-Osco ,Route 59 & Route 173,966 Route 59,Antioch,60002,(847) 395-7363,Illinois,IL,United States
0,Jewel-Osco ,Vail & Northwest Hwy,122 N Vail Ave,Arlington Heights,60005,(847) 398-1430,Illinois,IL,United States
0,Jewel-Osco ,Arlington Hts Rd & Golf Rd,1860 S Arlington Heights Rd,Arlington Heights,60005,(847) 593-1730,Illinois,IL,United States
0,Jewel-Osco ,Rand & Arlington Hts,440 E Rand Rd,Arlington Heights,60004,(847) 255-8735,Illinois,IL,United States
0,Jewel-Osco ,Eola & N Aurora,1157 N Eola Rd,Aurora,60502,(630) 851-1669,Illinois,IL,United States
0,Jewel-Osco ,Galena & Orchard,1952 W Galena Blvd,Aurora,60506,(630) 859-1212,Illinois,IL,United States
0,Jewel-Osco ,Main & Hough,150 W Main St,Barrington,60010,(847) 381-4525,Illinois,IL,United States
0,Jewel-Osco ,Bartlett & Stearns,125 E Stearns Rd,Bartlett,60103,(630) 540-0856,Illinois,IL,United States
0,Jewel-Osco ,Randall & Main,119 S Randall Rd,Batavia,60510,(630) 879-6622,Illinois,IL,United States
0,Jewel-Osco ,Bensenville,1127 S York Rd,Bensenville,60106,(630) 238-0170,Illinois,IL,United States
0,Jewel-Osco ,Veterans Parkway & College,2103 N Veterans Pkwy,Bloomington,61704,(309) 664-1320,Illinois,IL,United States
0,Jewel-Osco ,Oakland & Veteran Pk,2203 E Oakland Ave,Bloomington,61701,(309) 663-4012,Illinois,IL,United States
0,Jewel-Osco ,Boughton & Naperville Rd,1200 W Boughton Rd,Bolingbrook,60440,(630) 226-1892,Illinois,IL,United States
0,Jewel-Osco ,Main and Armour,655 Main St NW,Bourbonnais,60914,(815) 929-0560,Illinois,IL,United States
0,Jewel-Osco ,McHenry & Lake Cook,79 McHenry Rd,Buffalo Grove,60089,(847) 459-3070,Illinois,IL,United States
0,Jewel-Osco ,79th St & Cicero,7910 S Cicero Ave,Burbank,60459,(708) 422-5252,Illinois,IL,United States
0,Jewel-Osco ,Army Trail Rd & County Farm,750 Army Trail Rd,Carol Stream,60188,(630) 289-3700,Illinois,IL,United States
0,Jewel-Osco ,NW Hwy & 3 Oaks,696 Northwest Hwy,Cary,60013,(847) 639-3599,Illinois,IL,United States
0,Jewel-Osco ,W Division St,102 W Division St,Chicago,60610,(312) 397-1130,Illinois,IL,United States
0,Jewel-Osco ,119th and Marshfield,11730 S Marshfield Ave,Chicago,60643,(773) 568-8157,Illinois,IL,United States
0,Jewel-Osco ,Roosevelt & Ashland,1220 S Ashland Ave,Chicago,60608,(312) 733-0153,Illinois,IL,United States
0,Jewel-Osco ,Roosevelt & Wabash,1224 S Wabash Ave,Chicago,60605,(312) 663-0580,Illinois,IL,United States
0,Jewel-Osco ,Canal St and 14th St,1340 S Canal St,Chicago,60607,(312) 666-5495,Illinois,IL,United States
0,Jewel-Osco ,Paulina & Division,1341 N Paulina St,Chicago,60622,(773) 342-3410,Illinois,IL,United States
0,Jewel-Osco ,95th & Stony Island,1655 E 95th St,Chicago,60617,(773) 731-9086,Illinois,IL,United States
0,Jewel-Osco ,Howard St & N. Clark St.,1763 W Howard St,Chicago,60626,(773) 274-1287,Illinois,IL,United States
0,Jewel-Osco ,Narragansett & Diversey,2520 N Narragansett Ave,Chicago,60639,(773) 637-1631,Illinois,IL,United States
0,Jewel-Osco ,Clybourn & Wrightwood AveÂ ,2550 N Clybourn Ave,Chicago,60614,(773) 348-6426,Illinois,IL,United States
0,Jewel-Osco ,Ashland & Wellington,2940 N Ashland Ave,Chicago,60657,(773) 871-8242,Illinois,IL,United States
0,Jewel-Osco ,103rd St & Kedzie,3128 W 103rd St,Chicago,60655,(773) 238-4444,Illinois,IL,United States
0,Jewel-Osco ,Western & Roscoe,3400 N Western Ave,Chicago,60618,(773) 327-1204,Illinois,IL,United States
0,Jewel-Osco ,Broadway & Addison,3531 N Broadway St,Chicago,60657,(773) 871-1054,Illinois,IL,United States
0,Jewel-Osco ,Elston & Addison,3570 N Elston Ave,Chicago,60618,(773) 583-9150,Illinois,IL,United States
0,Jewel-Osco ,Southport and Addison,3630 N Southport Ave,Chicago,60613,(773) 327-2330,Illinois,IL,United States
0,Jewel-Osco ,Archer & Western,3644 S Archer Ave,Chicago,60609,(773) 523-6923,Illinois,IL,United States
0,Jewel-Osco ,Kinzie & Des Plaines,370 N Desplaines St,Chicago,60661,(312) 243-2710,Illinois,IL,United States
0,Jewel-Osco ,Foster & Pulaski,4042 W Foster Ave,Chicago,60630,(773) 583-8080,Illinois,IL,United States
0,Jewel-Osco ,N. Clybourn Ave & W. Division St.,424 W Division St,Chicago,60610,(312) 642-2709,Illinois,IL,United States
0,Jewel-Osco ,Lincoln & Berteau,4250 N Lincoln Ave,Chicago,60618,(773) 472-6171,Illinois,IL,United States
0,Jewel-Osco ,Sheridan & Montrose,4355 N Sheridan Rd,Chicago,60613,(773) 477-7151,Illinois,IL,United States
0,Jewel-Osco ,34th St & King Drive,443 E 34th St,Chicago,60616,(312) 842-0667,Illinois,IL,United States
0,Jewel-Osco ,Irving Park & Cicero,4660 W Irving Park Rd,Chicago,60641,(773) 202-0211,Illinois,IL,United States
0,Jewel-Osco ,Central & Lawrence,4729 N Central Ave,Chicago,60630,(773) 777-1142,Illinois,IL,United States
0,Jewel-Osco ,Pueblo & Lawrence,4734 N Cumberland Ave,Chicago,60656,(773) 625-2055,Illinois,IL,United States
0,Jewel-Osco ,Pulaski & 55th St,5320 S Pulaski Rd,Chicago,60632,(773) 284-7700,Illinois,IL,United States
0,Jewel-Osco ,Broadway & Foster,5343 N Broadway,Chicago,60640,(773) 784-1922,Illinois,IL,United States
0,Jewel-Osco ,Ohio & State,550 N State St,Chicago,60654,(312) 527-2162,Illinois,IL,United States
0,Jewel-Osco ,Clark & Bryn Mawr,5516 N Clark St,Chicago,60640,(773) 728-7730,Illinois,IL,United States
0,Jewel-Osco ,S Cottage Grove,6014 S Cottage Grove,Chicago,60637,(773) 358-4278,Illinois,IL,United States
0,Jewel-Osco ,Archer & Austin,6107 S Archer Ave,Chicago,60638,(773) 735-0043,Illinois,IL,United States
0,Jewel-Osco ,Irving Park Road & Narraganset,6430 W Irving Park Rd,Chicago,60634,(773) 725-8900,Illinois,IL,United States
0,Jewel-Osco ,Foster & Harlem,7342 W Foster Ave,Chicago,60656,(773) 775-6866,Illinois,IL,United States
0,Jewel-Osco ,75th St & Stony Island,7530 S Stony Island Ave,Chicago,60649,(773) 955-8150,Illinois,IL,United States
0,Jewel-Osco ,87th & State St,87 W 87th St,Chicago,60620,(773) 487-8700,Illinois,IL,United States
0,Jewel-Osco ,Ashland & 95th St,9400 S Ashland Ave,Chicago,60620,(773) 238-2393,Illinois,IL,United States
0,Jewel-Osco ,Holmes & 55th St,303 Holmes Ave,Clarendon Hills,60514,(630) 654-3455,Illinois,IL,United States
0,Jewel-Osco ,Brainard & 55th St,5545 S Brainard Ave,Countryside,60525,(708) 352-0120,Illinois,IL,United States
0,Jewel-Osco ,Routes 14 & 31,6140 Northwest Hwy,Crystal Lake,60014,(815) 356-8628,Illinois,IL,United States
0,Jewel-Osco ,Cass & 75th Ave,7329 S Cass Ave,Darien,60561,(630) 960-3177,Illinois,IL,United States
0,Jewel-Osco ,Waukegan & Lake Cook,16 S Waukegan Rd,Deerfield,60015,(847) 272-7420,Illinois,IL,United States
0,Jewel-Osco ,Sycamore & Lincoln,1320 Sycamore Rd,Dekalb,60115,(815) 758-5478,Illinois,IL,United States
0,Jewel-Osco ,Lee & Oakton,1500 S Lee St,Des Plaines,60018,(847) 296-7786,Illinois,IL,United States
0,Jewel-Osco ,Elmhurst & Dempster,819 S Elmhurst Rd,Des Plaines,60016,(847) 956-1220,Illinois,IL,United States
0,Jewel-Osco ,Saratoga & Ogden,1148 Ogden Ave,Downers Grove,60515,(630) 963-0645,Illinois,IL,United States
0,Jewel-Osco ,Main & 63rd Street,6215 Main St,Downers Grove,60516,(630) 969-3105,Illinois,IL,United States
0,Jewel-Osco ,Kennedy & 42nd Avenue,107 Avenue Of The Cities,East Moline,61244,(309) 751-0935,Illinois,IL,United States
0,Jewel-Osco ,State Rt 47 & State Rt 38,800 N Main St,Elburn,60119,(630) 365-4215,Illinois,IL,United States
0,Jewel-Osco ,Summit & Route 25,1040 Summit Ave,Elgin,60120,(847) 622-8112,Illinois,IL,United States
0,Jewel-Osco ,Larkin & McLean,1660 Larkin Ave,Elgin,60123,(847) 695-7573,Illinois,IL,United States
0,Jewel-Osco ,Biesterfield & Arlington Hts Rd,20 W Biesterfield,Elk Grove Village,60007,(847) 593-1112,Illinois,IL,United States
0,Jewel-Osco ,Robert Palmer & Schiller,153 Schiller St,Elmhurst,60126,(630) 530-8790,Illinois,IL,United States
0,Jewel-Osco ,York & Butterfield,944 S York Rd,Elmhurst,60126,(630) 834-0006,Illinois,IL,United States
0,Jewel-Osco ,Chicago & Greenleaf,1128 Chicago Ave,Evanston,60202,(847) 869-7950,Illinois,IL,United States
0,Jewel-Osco ,Howard & McCormick,2485 Howard St,Evanston,60202,(847) 328-9791,Illinois,IL,United States
0,Jewel-Osco ,Routes 12 & 134,1350 US Route 12,Fox Lake,60020,(847) 973-9075,Illinois,IL,United States
0,Jewel-Osco ,NW Hwy & W. State Rte 22,800 NW Hwy 14,Fox River Grove,60021,(847) 516-4315,Illinois,IL,United States
0,Jewel-Osco ,La Grange Rd & Rte 30,21164 S La Grange Rd,Frankfort,60423,(815) 464-5352,Illinois,IL,United States
0,Jewel-Osco ,Grand & Mannheim,10203 W Grand Ave,Franklin Park,60131,(847) 455-7711,Illinois,IL,United States
0,Jewel-Osco ,Roosevelt & Park,599 E Roosevelt Rd,Glen Ellyn,60137,(630) 858-9096,Illinois,IL,United States
0,Jewel-Osco ,Bloomingdale & Army Trail Rd,2164 Bloomingdale Rd,Glendale Heights,60139,(630) 893-2770,Illinois,IL,United States
0,Jewel-Osco ,Patriot Blvd & E Lake Ave,1340 Patriot Blvd,Glenview,60026,(847) 657-9130,Illinois,IL,United States
0,Jewel-Osco ,Waukegan & Willow,2502 N Waukegan Rd,Glenview,60025,(847) 486-0864,Illinois,IL,United States
0,Jewel-Osco ,Pfingsten & Willow,2775 Pfingsten Rd,Glenview,60026,(847) 564-8550,Illinois,IL,United States
0,Jewel-Osco ,Rt 120 & Atkinson,885 E Belvidere Rd,Grayslake,60030,(847) 543-8976,Illinois,IL,United States
0,Jewel-Osco ,Grand & Hunt Club Rd,6509 W Grand Ave,Gurnee,60031,(847) 855-1991,Illinois,IL,United States
0,Jewel-Osco ,Roberts & 95th St,9528 S Roberts Rd,Hickory Hills,60457,(708) 599-5514,Illinois,IL,United States
0,Jewel-Osco ,Hwy 41 & Deerfield,1600 Deerfield Rd,Highland Park,60035,(847) 579-0872,Illinois,IL,United States
0,Jewel-Osco ,Roselle & Higgins,1069 N Roselle Rd,Hoffman Estates,60169,(847) 882-3210,Illinois,IL,United States
0,Jewel-Osco ,Palatine & Barrington,1485 Palatine Rd,Hoffman Estates,60192,(847) 202-0586,Illinois,IL,United States
0,Jewel-Osco ,S Bell Rd & 143rd St,14200 S Bell Rd,Homer Glen,60491,(708) 301-0984,Illinois,IL,United States
0,Jewel-Osco ,Halsted & Ridge Road,17705 S Halsted St,Homewood,60430,(708) 957-1810,Illinois,IL,United States
0,Jewel-Osco ,183rd St & Kedzie,3153 W 183rd,Homewood,60430,(708) 957-3131,Illinois,IL,United States
0,Jewel-Osco ,Rt 47 & Oak Creek Pkwy,13200 Village Green Dr,Huntley,60142,(847) 961-5597,Illinois,IL,United States
0,Jewel-Osco ,Jefferson & Midland,1401 W Jefferson St,Joliet,60435,(815) 725-9880,Illinois,IL,United States
0,Jewel-Osco ,Larkin & Theodore,1537 N Larkin,Joliet,60435,(815) 725-4407,Illinois,IL,United States
0,Jewel-Osco ,Washington & Station,446 S Washington Ave,Kankakee,60901,(815) 935-2040,Illinois,IL,United States
0,Jewel-Osco ,Woodlawn & La Grange Rd,507 E Woodlawn Ave,La Grange Park,60526,(708) 354-4643,Illinois,IL,United States
0,Jewel-Osco ,Western & Deer Path Rd,890 N Western Ave,Lake Forest,60045,(847) 735-8018,Illinois,IL,United States
0,Jewel-Osco ,S. Rand Rd. & W. Main St.,345 S Rand Rd,Lake Zurich,60047,(847) 438-2720,Illinois,IL,United States
0,Jewel-Osco ,Ela & Rand,485 Ela Rd,Lake Zurich,60047,(847) 438-7300,Illinois,IL,United States
0,Jewel-Osco ,State Street,1202 State St,Lemont,60439,(630) 243-1925,Illinois,IL,United States
0,Jewel-Osco ,Milwaukee & Golf,1300 S Milwaukee Ave,Libertyville,60048,(847) 816-8200,Illinois,IL,United States
0,Jewel-Osco ,Maple & Route 53,1156 Maple Ave,Lisle,60532,(630) 964-5166,Illinois,IL,United States
0,Jewel-Osco ,Rt 7 & Farrell Rd,16625 W 159th St,Lockport,60441,(815) 834-9516,Illinois,IL,United States
0,Jewel-Osco ,Main & Roosevelt,1177 S Main St,Lombard,60148,(630) 953-1390,Illinois,IL,United States
0,Jewel-Osco ,Elm & Crystal Lake,4222 W Elm St,McHenry,60050,(815) 344-1408,Illinois,IL,United States
0,Jewel-Osco ,North & Ninth Avenues,800 W North Ave,Melrose Park,60160,(708) 547-7974,Illinois,IL,United States
0,Jewel-Osco ,W. 115th St. & Kedzie Ave,3243 W 115th St,Merrionette Park,60803,(708) 389-9001,Illinois,IL,United States
0,Jewel-Osco ,Ridge Road & Route 6,2051 Ridge Rd,Minooka,60447,(815) 467-0924,Illinois,IL,United States
0,Jewel-Osco ,First & 19th Avenue,2010 1st St A,Moline,61265,(309) 797-0558,Illinois,IL,United States
0,Jewel-Osco ,Division & Waverly,1414 N Division St,Morris,60450,(815) 942-2374,Illinois,IL,United States
0,Jewel-Osco ,Elmhurst & Euclid,333 E Euclid Ave,Mount Prospect,60056,(847) 394-9390,Illinois,IL,United States
0,Jewel-Osco ,1150 W. Maple Ave,1150 W Maple Ave,Mundelein,60060,(847) 970-9250,Illinois,IL,United States
0,Jewel-Osco ,Lake & Route 60,1501 S Lake St,Mundelein,60060,(847) 566-6161,Illinois,IL,United States
0,Jewel-Osco ,Naper Blvd & 75th St,1227 Naper Blvd,Naperville,60540,(630) 961-9050,Illinois,IL,United States
0,Jewel-Osco ,Ogden & Washington,127 E Ogden Ave,Naperville,60563,(630) 420-1818,Illinois,IL,United States
0,Jewel-Osco ,Ogden & Aurora Rd,1759 W Ogden Ave,Naperville,60540,(630) 637-0490,Illinois,IL,United States
0,Jewel-Osco ,95th St & Route 59,2855 W 95th St,Naperville,60564,(630) 904-5119,Illinois,IL,United States
0,Jewel-Osco ,Laraway & Schoolhouse,2021 E Laraway Rd,New Lenox,60451,(815) 463-4950,Illinois,IL,United States
0,Jewel-Osco ,Route 30 & Nelson,475 N Nelson Rd,New Lenox,60451,(815) 462-0018,Illinois,IL,United States
0,Jewel-Osco ,Touhy & Central,5667 W Touhy Ave,Niles,60714,(847) 647-6880,Illinois,IL,United States
0,Jewel-Osco ,Milwaukee & Oakton,7900 Milwaukee Ave,Niles,60714,(847) 965-3925,Illinois,IL,United States
0,Jewel-Osco ,Dempster & Greenwood,8730 W Dempster,Niles,60714,(847) 298-6352,Illinois,IL,United States
0,Jewel-Osco ,Cottage & Hovey,901 S Cottage Ave,Normal,61761,(309) 454-6089,Illinois,IL,United States
0,Jewel-Osco ,24th St & Harlem,7201 W 24th St,North Riverside,60546,(708) 442-9151,Illinois,IL,United States
0,Jewel-Osco ,159th & Central,5616 W 159th St,Oak Forest,60452,(708) 614-6700,Illinois,IL,United States
0,Jewel-Osco ,103rd St & Cicero,4650 W 103rd St,Oak Lawn,60453,(708) 636-2520,Illinois,IL,United States
0,Jewel-Osco ,Ridgeland & 87th,8801 S Ridgeland Ave,Oak Lawn,60453,(708) 599-4500,Illinois,IL,United States
0,Jewel-Osco ,Pulaski & 95th St,9424 S Pulaski Rd,Oak Lawn,60453,(708) 423-0535,Illinois,IL,United States
0,Jewel-Osco ,Madison & Ridgeland,438 W Madison St,Oak Park,60302,(708) 383-7111,Illinois,IL,United States
0,Jewel-Osco ,Roosevelt & Harlem,7036 Roosevelt Rd,Oak Park,60304,(708) 524-9660,Illinois,IL,United States
0,Jewel-Osco ,179th & Wolf,17930 Wolf Rd,Orland Park,60467,(708) 479-1573,Illinois,IL,United States
0,Jewel-Osco ,159th & 94th Avenues,9350 W 159th St,Orland Park,60462,(708) 403-6920,Illinois,IL,United States
0,Jewel-Osco ,Route 30 & Douglas,2540 US Hwy 30,Oswego,60543,(630) 892-0029,Illinois,IL,United States
0,Jewel-Osco ,Orchard and Route 34,3795 Orchard Rd,Oswego,60543,(630) 551-1347,Illinois,IL,United States
0,Jewel-Osco ,Dundee & Hicks,423 E Dundee Rd,Palatine,60074,(847) 991-4545,Illinois,IL,United States
0,Jewel-Osco ,Plum Grove & Palatine,45 S Plum Grove Rd,Palatine,60067,(847) 991-1888,Illinois,IL,United States
0,Jewel-Osco ,127th St & Harlem,12803 S Harlem Ave,Palos Heights,60463,(708) 671-1568,Illinois,IL,United States
0,Jewel-Osco ,131st & La Grange Rd,9652 W 131st St,Palos Park,60464,(708) 361-8880,Illinois,IL,United States
0,Jewel-Osco ,Busse Hwy & Greenwood,481 Busse Hwy,Park Ridge,60068,(847) 696-0824,Illinois,IL,United States
0,Jewel-Osco ,Route 59 & 135th Street,13460 S Rt 59,Plainfield,60585,(815) 577-2605,Illinois,IL,United States
0,Jewel-Osco ,Rte 59 & Caton Farm,2480 Route 59,Plainfield,60586,(815) 254-3291,Illinois,IL,United States
0,Jewel-Osco ,Lake & Lathrop,7525 W Lake St,River Forest,60305,(708) 771-0044,Illinois,IL,United States
0,Jewel-Osco ,Kirchoff & Meadow,3000 Kirchoff Rd,Rolling Meadows,60008,(847) 398-2060,Illinois,IL,United States
0,Jewel-Osco ,Taylor & Weber,20 S Weber Rd,Romeoville,60446,(815) 293-0665,Illinois,IL,United States
0,Jewel-Osco ,Rollins & Route 83,900 E Rollins Rd,Round Lake Beach,60073,(847) 223-9201,Illinois,IL,United States
0,Jewel-Osco ,Roselle & Wise,1151 S Roselle Rd,Schaumburg,60193,(847) 891-8388,Illinois,IL,United States
0,Jewel-Osco ,Schaumburg & Barrington Rd,2501 Schaumburg Rd,Schaumburg,60194,(847) 524-8960,Illinois,IL,United States
0,Jewel-Osco ,Rt 59 & Rt 52,199 Brookforest Ave,Shorewood,60404,(815) 730-3944,Illinois,IL,United States
0,Jewel-Osco ,John Deere Expy & 42nd,1312 John Deere Expy,Silvis,61282,(309) 792-5955,Illinois,IL,United States
0,Jewel-Osco ,Skokie Blvd,9449 N Skokie Blvd,Skokie,60077,(847) 677-3331,Illinois,IL,United States
0,Jewel-Osco ,Chicago Rd & So Trail,3220 Chicago Rd,South Chicago Heights,60411,(708) 755-7372,Illinois,IL,United States
0,Jewel-Osco ,Randall & McDonald Rd,375 Randall Rd,South Elgin,60177,(847) 608-1460,Illinois,IL,United States
0,Jewel-Osco ,162nd & Cottage Grove,763 E 162nd St,South Holland,60473,(708) 596-1960,Illinois,IL,United States
0,Jewel-Osco ,Rt 12 & Spring Grove,2401 Route 12,Spring Grove,60081,(815) 675-6716,Illinois,IL,United States
0,Jewel-Osco ,Prairie & Randall,2073 Prairie St,St Charles,60174,(630) 584-7228,Illinois,IL,United States
0,Jewel-Osco ,Kirk Road & North Ave,652 Kirk Rd,St Charles,60174,(630) 587-0847,Illinois,IL,United States
0,Jewel-Osco ,40th St & Harlem,7122 W 40th St,Stickney,60402,(708) 484-8421,Illinois,IL,United States
0,Jewel-Osco ,Irving Pk Rd & Barlett,217 Irving Park Rd,Streamwood,60107,(630) 837-6015,Illinois,IL,United States
0,Jewel-Osco ,Rt 47 & Galena,465 N Route 47,Sugar Grove,60554,(630) 466-1493,Illinois,IL,United States
0,Jewel-Osco ,Route 23 & Peace,220 W Peace Rd,Sycamore,60178,(815) 895-5276,Illinois,IL,United States
0,Jewel-Osco ,Harlem & 171st St,17117 S Harlem Ave,Tinley Park,60477,(708) 532-7414,Illinois,IL,United States
0,Jewel-Osco ,St Charles & Ardmore,33 E St Charles Rd,Villa Park,60181,(630) 832-0400,Illinois,IL,United States
0,Jewel-Osco ,Liberty & Route 12,547 W Liberty St,Wauconda,60084,(847) 526-0964,Illinois,IL,United States
0,Jewel-Osco ,N Lewis Ave,3124 N Lewis Ave,Waukegan,60087,(847) 249-1130,Illinois,IL,United States
0,Jewel-Osco ,Green Bay Rd & Grand,922 N Green Bay Rd,Waukegan,60085,(847) 662-0042,Illinois,IL,United States
0,Jewel-Osco ,Roosevelt & Joliet,177 E Roosevelt Rd,West Chicago,60185,(630) 293-5350,Illinois,IL,United States
0,Jewel-Osco ,Main & Route 72,1250 W Main St,West Dundee,60118,(847) 428-3355,Illinois,IL,United States
0,Jewel-Osco ,Mannheim & 22nd St,2128 S Mannheim Rd,Westchester,60154,(708) 531-9560,Illinois,IL,United States
0,Jewel-Osco ,Ogden & Cass,4 E Ogden Ave,Westmont,60559,(630) 323-9885,Illinois,IL,United States
0,Jewel-Osco ,Main & Geneva,2031 N Main St,Wheaton,60187,(630) 682-0220,Illinois,IL,United States
0,Jewel-Osco ,Butterfield & Naperville Rd,30 Danada Square W,Wheaton,60189,(630) 668-1172,Illinois,IL,United States
0,Jewel-Osco ,Sheridan & Westerfield,1517 Sheridan Rd,Wilmette,60091,(847) 256-7790,Illinois,IL,United States
0,Jewel-Osco ,North Green Bay Rd,411 N Green Bay Rd,Wilmette,60091,(847) 256-7420,Illinois,IL,United States
0,Jewel-Osco ,Irving Pk & Addison,343 W Irving Park Rd,Wood Dale,60191,(630) 773-4326,Illinois,IL,United States
0,Jewel-Osco ,75th St & Janes Ave,2317 75th St,Woodridge,60517,(630) 985-9380,Illinois,IL,United States
0,Jewel-Osco ,Route 47 & Country Club Road,145 S Eastwood Dr,Woodstock,60098,(815) 206-0499,Illinois,IL,United States
0,Jewel-Osco ,Rt 34 & Rt 47,234 E Veterans Pkwy,Yorkville,60560,(630) 553-1617,Illinois,IL,United States
0,Jewel-Osco ,21st & Sheridan Rd,1400 21st St,Zion,60099,(847) 746-8138,Illinois,IL,United States
0,Jewel-Osco ,Indian Boundary & Route 49,747 Indian Boundary Rd,Chesterton,46304,(219) 926-7172,Indiana,IN,United States
0,Jewel-Osco ,Main & Route 30,1276 N Main St,Crown Point,46307,(219) 662-0080,Indiana,IN,United States
0,Jewel-Osco ,Route 30 & Calumet Ave,805 Joliet St,Dyer,46311,(219) 864-0078,Indiana,IN,United States
0,Jewel-Osco ,Ridge & Calumet,716 Ridge Rd,Munster,46321,(219) 836-1118,Indiana,IN,United States
