,source,title,address_line,city,postal_code,ph_no,state_name,state_code,country
0,1 Pak 'N Save Foods Location in ,Emeryville,3889 San Pablo Ave,Emeryville,94608,(510) 450-1200,California,CA,United States
0,1 Pak 'N Save Foods Location in ,Madera,2237 W Cleveland Ave,Madera,93637,(559) 661-6440,California,CA,United States
0,1 Pak 'N Save Foods Location in ,San Leandro,555 Floresta Blvd,San Leandro,94578,(510) 483-2681,California,CA,United States
0,2 Safeway Locations in ,Fairbanks,30 College Rd,Fairbanks,99701,(907) 456-8501,Alaska,AK,United States
0,1 Safeway Location in ,Homer,90 Sterling Hwy,Homer,99603,(907) 226-1000,Alaska,AK,United States
0,1 Safeway Location in ,Juneau,3033 Vintage Blvd,Juneau,99801,(907) 523-2000,Alaska,AK,United States
0,1 Safeway Location in ,Kenai,10576 Kenai Spur Hwy,Kenai,99611,(907) 283-6300,Alaska,AK,United States
0,1 Safeway Location in ,Ketchikan,2417 Tongass Ave,Ketchikan,99901,(907) 228-1900,Alaska,AK,United States
0,1 Safeway Location in ,Kodiak,2685 Mill Bay Rd,Kodiak,99615,(907) 481-1500,Alaska,AK,United States
0,1 Safeway Location in ,North Pole,301 N Santa Claus Ln,North Pole,99705,(907) 490-2700,Alaska,AK,United States
0,1 Safeway Location in ,Seward,1907 Seward Hwy,Seward,99664,(907) 224-6900,Alaska,AK,United States
0,1 Safeway Location in ,Soldotna,44428 Sterling Hwy,Soldotna,99669,(907) 714-5400,Alaska,AK,United States
0,1 Safeway Location in ,Unalaska,2029 Airport Beach Rd,Unalaska,99692,(907) 581-4040,Alaska,AK,United States
0,1 Safeway Location in ,Valdez,1313 Meals St,Valdez,99686,(907) 461-3300,Alaska,AK,United States
0,1 Safeway Location in ,Anthem,3655 W Anthem Way,Anthem,85086,(623) 745-3800,Arizona,AZ,United States
0,1 Safeway Location in ,Apache Junction,3185 W Apache Trail,Apache Junction,85120,(480) 982-6120,Arizona,AZ,United States
0,1 Safeway Location in ,Benson,599 W 4th St,Benson,85602,(520) 586-9094,Arizona,AZ,United States
0,1 Safeway Location in ,Bisbee,101 Naco Rd,Bisbee,85603,(520) 432-3038,Arizona,AZ,United States
0,1 Safeway Location in ,Bullhead City,1751 Hwy 95,Bullhead City,86442,(928) 763-3555,Arizona,AZ,United States
0,1 Safeway Location in ,Casa Grande,1637 N Trekell Rd,Casa Grande,85122,(520) 421-7447,Arizona,AZ,United States
0,1 Safeway Location in ,Cave Creek,29834 N Cave Creek Rd,Cave Creek,85331,(480) 563-9335,Arizona,AZ,United States
0,3 Safeway Locations in ,Chandler,1060 E Ray Rd,Chandler,85225,(480) 855-5005,Arizona,AZ,United States
0,1 Safeway Location in ,Chino Valley,1031 N US Hwy 89,Chino Valley,86323,(928) 636-8358,Arizona,AZ,United States
0,1 Safeway Location in ,Coolidge,1449 N Arizona Blvd,Coolidge,85128,(520) 723-5300,Arizona,AZ,United States
0,1 Safeway Location in ,Cottonwood,1635 E Cottonwood Ln,Cottonwood,86326,(928) 634-3711,Arizona,AZ,United States
0,3 Safeway Locations in ,Flagstaff,1201 S Plaza Way,Flagstaff,86001,(928) 779-3401,Arizona,AZ,United States
0,1 Safeway Location in ,Florence,3325 N Hunt Hwy,Florence,85132,(520) 723-0179,Arizona,AZ,United States
0,1 Safeway Location in ,Fort Mohave,4823 S Hwy 95,Fort Mohave,86426,(928) 704-4433,Arizona,AZ,United States
0,1 Safeway Location in ,Fountain Hills,13733 Fountain Hills Blvd,Fountain Hills,85268,(480) 837-0287,Arizona,AZ,United States
0,2 Safeway Locations in ,Gilbert,5137 E Baseline Rd,Gilbert,85234,(480) 325-5807,Arizona,AZ,United States
0,2 Safeway Locations in ,Glendale,20205 N 67th Ave #100,Glendale,85308,(623) 572-8814,Arizona,AZ,United States
0,1 Safeway Location in ,Globe,240 S Hill St,Globe,85501,(928) 425-5390,Arizona,AZ,United States
0,3 Safeway Locations in ,Goodyear,14175 W Indian School Rd,Goodyear,85395,(623) 935-3228,Arizona,AZ,United States
0,1 Safeway Location in ,Green Valley,260 W Continental Rd,Green Valley,85614,(520) 625-7283,Arizona,AZ,United States
0,1 Safeway Location in ,Holbrook,702 W Hopi Dr,Holbrook,86025,(928) 524-3313,Arizona,AZ,United States
0,2 Safeway Locations in ,Kingman,3125 Stockton Hill Rd,Kingman,86401,(928) 753-2943,Arizona,AZ,United States
0,1 Safeway Location in ,Lake Havasu City,1650 Mcculloch Blvd N,Lake Havasu City,86403,(928) 855-7760,Arizona,AZ,United States
0,1 Safeway Location in ,Laveen,5035 W Baseline Rd,Laveen,85339,(602) 567-7561,Arizona,AZ,United States
0,5 Safeway Locations in ,Mesa,1225 W Guadalupe,Mesa,85202,(480) 838-7452,Arizona,AZ,United States
0,1 Safeway Location in ,Nogales,465 W Mariposa Rd,Nogales,85621,(520) 281-4929,Arizona,AZ,United States
0,1 Safeway Location in ,Oro Valley,12122 N Rancho Vistoso Blvd,Oro Valley,85755,(520) 297-4344,Arizona,AZ,United States
0,1 Safeway Location in ,Page,650 Elm St,Page,86040,(928) 645-8155,Arizona,AZ,United States
0,1 Safeway Location in ,Parker,121 W Riverside Dr,Parker,85344,(928) 669-2243,Arizona,AZ,United States
0,1 Safeway Location in ,Payson,401 E Hwy 260,Payson,85541,(928) 472-8208,Arizona,AZ,United States
0,3 Safeway Locations in ,Peoria,10641 W Olive Ave,Peoria,85345,(623) 583-7227,Arizona,AZ,United States
0,14 Safeway Locations in ,Phoenix,1334 E Chandler Blvd,Phoenix,85048,(480) 283-0032,Arizona,AZ,United States
0,1 Safeway Location in ,Pinetop-Lakeside,20 E White Mountain Blvd,Pinetop-Lakeside,85935,(928) 367-6677,Arizona,AZ,United States
0,1 Safeway Location in ,Prescott Valley,7720 E Hwy 69,Prescott Valley,86314,(928) 772-6126,Arizona,AZ,United States
0,2 Safeway Locations in ,Prescott,1044 Willow Creek Rd,Prescott,86301,(928) 445-4550,Arizona,AZ,United States
0,2 Safeway Locations in ,Queen Creek,18495 E Queen Creek Rd,Queen Creek,85142,(480) 279-2733,Arizona,AZ,United States
0,1 Safeway Location in ,Sahuarita,1305 W Duval Mine Rd,Sahuarita,85614,(520) 648-2847,Arizona,AZ,United States
0,7 Safeway Locations in ,Scottsdale,10773 N Scottsdale Rd,Scottsdale,85254,(480) 948-6446,Arizona,AZ,United States
0,1 Safeway Location in ,Sedona,2300 W Hwy 89A,Sedona,86336,(928) 282-0118,Arizona,AZ,United States
0,1 Safeway Location in ,Show Low,900 W Deuce Of Clubs,Show Low,85901,(928) 532-5656,Arizona,AZ,United States
0,1 Safeway Location in ,Sierra Vista,2190 E Fry Blvd,Sierra Vista,85635,(520) 459-4204,Arizona,AZ,United States
0,1 Safeway Location in ,Springerville,203 S Mountain Ave,Springerville,85938,(928) 333-4165,Arizona,AZ,United States
0,1 Safeway Location in ,Sun City West,13503 Camino Del Sol,Sun City West,85375,(623) 975-2304,Arizona,AZ,United States
0,1 Safeway Location in ,Sun City,10926 W Bell Rd,Sun City,85351,(623) 972-1350,Arizona,AZ,United States
0,2 Safeway Locations in ,Surprise,13828 W Waddell Rd,Surprise,85379,(623) 476-1810,Arizona,AZ,United States
0,2 Safeway Locations in ,Tempe,1515 E Elliot Rd,Tempe,85284,(480) 755-1844,Arizona,AZ,United States
0,1 Safeway Location in ,Thatcher,2125 W Hwy 70,Thatcher,85552,(928) 428-2771,Arizona,AZ,United States
0,14 Safeway Locations in ,Tucson,10380 E Broadway Blvd,Tucson,85748,(520) 885-7777,Arizona,AZ,United States
0,1 Safeway Location in ,Vail,13380 E Mary Ann Cleveland Way,Vail,85641,(520) 526-7087,Arizona,AZ,United States
0,1 Safeway Location in ,Wickenburg,1999 W Wickenburg Way,Wickenburg,85390,(928) 684-2999,Arizona,AZ,United States
0,1 Safeway Location in ,Willcox,650 N Bisbee Ave,Willcox,85643,(520) 384-3952,Arizona,AZ,United States
0,1 Safeway Location in ,Williams,637 W Route 66,Williams,86046,(928) 635-0500,Arizona,AZ,United States
0,1 Safeway Location in ,Winslow,1601 N Park Dr,Winslow,86047,(928) 289-3126,Arizona,AZ,United States
0,3 Safeway Locations in ,Alameda,2227 S Shore Ctr,Alameda,94501,(510) 863-9000,California,CA,United States
0,1 Safeway Location in ,Alamo,200 Alamo Plaza,Alamo,94507,(925) 820-8022,California,CA,United States
0,1 Safeway Location in ,Albany,1500 Solano Ave,Albany,94707,(510) 525-4107,California,CA,United States
0,1 Safeway Location in ,American Canyon,103 American Canyon Rd,American Canyon,94503,(707) 649-5150,California,CA,United States
0,1 Safeway Location in ,Anderson,2601 Balls Ferry Rd,Anderson,96007,(530) 365-6401,California,CA,United States
0,1 Safeway Location in ,Antioch,3365 Deer Valley Rd,Antioch,94531,(925) 706-4150,California,CA,United States
0,1 Safeway Location in ,Aptos,16 Rancho Del Mar,Aptos,95003,(831) 688-2775,California,CA,United States
0,1 Safeway Location in ,Arcata,600 F St,Arcata,95521,(707) 822-5217,California,CA,United States
0,1 Safeway Location in ,Auburn,2550 Bell Rd,Auburn,95603,(530) 887-3230,California,CA,United States
0,2 Safeway Locations in ,Belmont,1100 El Camino,Belmont,94002,(650) 596-1730,California,CA,United States
0,1 Safeway Location in ,Benicia,50 Solano Square,Benicia,94510,(707) 745-4047,California,CA,United States
0,1 Safeway Location in ,Berkeley,1444 Shattuck Place,Berkeley,94709,(510) 526-3086,California,CA,United States
0,2 Safeway Locations in ,Brentwood,1125 2nd St,Brentwood,94513,(925) 634-6780,California,CA,United States
0,1 Safeway Location in ,Burlingame,1450 Howard Ave,Burlingame,94010,(650) 343-3488,California,CA,United States
0,1 Safeway Location in ,Burney,37264 Main St,Burney,96013,(530) 335-3212,California,CA,United States
0,1 Safeway Location in ,Cameron Park,3380 Coach Ln,Cameron Park,95682,(530) 676-6930,California,CA,United States
0,2 Safeway Locations in ,Campbell,2341 S Winchester Blvd,Campbell,95008,(408) 364-6880,California,CA,United States
0,2 Safeway Locations in ,Carmel,104 Mid Valley Center,Carmel,93923,(831) 624-4600,California,CA,United States
0,1 Safeway Location in ,Carmichael,4040 Manzanita Ave,Carmichael,95608,(916) 481-2005,California,CA,United States
0,2 Safeway Locations in ,Castro Valley,20629 Redwood Rd,Castro Valley,94546,(510) 538-3088,California,CA,United States
0,3 Safeway Locations in ,Chico,1016 W Sacramento Ave,Chico,95926,(530) 895-0244,California,CA,United States
0,1 Safeway Location in ,Citrus Heights,7301 Greenback Ln,Citrus Heights,95621,(916) 727-2424,California,CA,United States
0,1 Safeway Location in ,Clayton,5431 Clayton Rd,Clayton,94517,(925) 672-2135,California,CA,United States
0,1 Safeway Location in ,Clearlake,14922 Olympic Dr,Clearlake,95422,(707) 994-7275,California,CA,United States
0,2 Safeway Locations in ,Concord,2600 Willow Pass Rd,Concord,94519,(925) 689-3240,California,CA,United States
0,1 Safeway Location in ,Corning,600 Edith St,Corning,96021,(530) 824-2467,California,CA,United States
0,1 Safeway Location in ,Corte Madera,137 Corte Madera Town Ctr,Corte Madera,94925,(415) 927-1960,California,CA,United States
0,1 Safeway Location in ,Crescent City,475 M St,Crescent City,95531,(707) 465-3353,California,CA,United States
0,1 Safeway Location in ,Cupertino,20620 W Homestead Rd,Cupertino,95014,(408) 253-0112,California,CA,United States
0,1 Safeway Location in ,Daly City,601 Westlake Ctr,Daly City,94015,(650) 755-0576,California,CA,United States
0,1 Safeway Location in ,Danville,3496 Camino Tassajara,Danville,94506,(925) 736-0298,California,CA,United States
0,2 Safeway Locations in ,Davis,1451 W Covell Blvd,Davis,95616,(530) 757-4540,California,CA,United States
0,1 Safeway Location in ,Del Rey Oaks,815 Canyon Del Rey Blvd,Del Rey Oaks,93940,(831) 393-2090,California,CA,United States
0,1 Safeway Location in ,Discovery Bay,14840 Hwy 4,Discovery Bay,94505,(925) 626-6000,California,CA,United States
0,1 Safeway Location in ,Dixon,1235 Stratford Ave,Dixon,95620,(707) 678-7400,California,CA,United States
0,2 Safeway Locations in ,Dublin,4440 Tassajara Rd,Dublin,94568,(925) 551-4710,California,CA,United States
0,1 Safeway Location in ,El Cerrito,11450 San Pablo Ave,El Cerrito,94530,(510) 233-8400,California,CA,United States
0,2 Safeway Locations in ,El Dorado Hills,2207 Francisco Dr,El Dorado Hills,95762,(916) 939-9456,California,CA,United States
0,1 Safeway Location in ,Elk Grove,5021 Laguna Blvd,Elk Grove,95758,(916) 691-3770,California,CA,United States
0,1 Safeway Location in ,Eureka,2555 Harris St,Eureka,95503,(707) 269-0133,California,CA,United States
0,2 Safeway Locations in ,Fair Oaks,5450 Dewey Dr,Fair Oaks,95628,(916) 904-5356,California,CA,United States
0,2 Safeway Locations in ,Fairfield,2401 Waterman Dr,Fairfield,94534,(707) 427-5640,California,CA,United States
0,1 Safeway Location in ,Felton,6255 Graham Hill Rd,Felton,95018,(831) 335-3532,California,CA,United States
0,1 Safeway Location in ,Folsom,1850 Prairie City Rd,Folsom,95630,(916) 608-2450,California,CA,United States
0,1 Safeway Location in ,Fort Bragg,660 S Main St,Fort Bragg,95437,(707) 964-4079,California,CA,United States
0,1 Safeway Location in ,Fortuna,701 S Fortuna Blvd,Fortuna,95540,(707) 725-5104,California,CA,United States
0,1 Safeway Location in ,Foster City,921 E Hillsdale Blvd,Foster City,94404,(650) 377-0711,California,CA,United States
0,1 Safeway Location in ,Freedom,2010 Freedom Blvd,Freedom,95019,(831) 728-2640,California,CA,United States
0,3 Safeway Locations in ,Fremont,3902 Washington Blvd,Fremont,94538,(510) 657-1625,California,CA,United States
0,1 Safeway Location in ,Gilroy,905 First St,Gilroy,95020,(408) 842-6446,California,CA,United States
0,2 Safeway Locations in ,Grass Valley,105 Neal St,Grass Valley,95945,(530) 273-0115,California,CA,United States
0,1 Safeway Location in ,Gridley,1596 St Hwy 99,Gridley,95948,(530) 846-3762,California,CA,United States
0,1 Safeway Location in ,Guerneville,16405 Hwy 116,Guerneville,95446,(707) 869-9433,California,CA,United States
0,1 Safeway Location in ,Half Moon Bay,70 Cabrillo Hwy,Half Moon Bay,94019,(650) 726-1143,California,CA,United States
0,2 Safeway Locations in ,Hayward,22280 Foothill Blvd,Hayward,94541,(510) 582-0700,California,CA,United States
0,1 Safeway Location in ,Healdsburg,1115 Vine St,Healdsburg,95448,(707) 431-7102,California,CA,United States
0,1 Safeway Location in ,Hollister,591 Tres Pinos Rd,Hollister,95023,(831) 638-3240,California,CA,United States
0,1 Safeway Location in ,Jackson,12110 Industry Blvd,Jackson,95642,(209) 257-0779,California,CA,United States
0,1 Safeway Location in ,King City,530 Canal St,King City,93930,(831) 385-7820,California,CA,United States
0,1 Safeway Location in ,Kings Beach,7815 N Lake Blvd,Kings Beach,96143,(530) 546-0170,California,CA,United States
0,1 Safeway Location in ,Lafayette,3540 Mt Diablo Blvd,Lafayette,94549,(925) 283-0228,California,CA,United States
0,1 Safeway Location in ,Lakeport,1071 11th St,Lakeport,95453,(707) 263-8072,California,CA,United States
0,1 Safeway Location in ,Lincoln,67 Lincoln Blvd,Lincoln,95648,(916) 408-0800,California,CA,United States
0,2 Safeway Locations in ,Livermore,1554 First St,Livermore,94550,(925) 455-5667,California,CA,United States
0,1 Safeway Location in ,Lodi,2449 W Kettleman Ln,Lodi,95242,(209) 367-7875,California,CA,United States
0,1 Safeway Location in ,Los Altos,160 1st St,Los Altos,94022,(650) 941-1801,California,CA,United States
0,3 Safeway Locations in ,Los Gatos,1500 Pollard Rd,Los Gatos,95032,(408) 374-2050,California,CA,United States
0,1 Safeway Location in ,Manteca,1187 S Main St,Manteca,95337,(209) 824-1144,California,CA,United States
0,2 Safeway Locations in ,Martinez,3334 Alhambra Ave,Martinez,94553,(925) 229-0212,California,CA,United States
0,1 Safeway Location in ,Mckinleyville,1503 City Ctr Rd,Mckinleyville,95519,(707) 840-9770,California,CA,United States
0,2 Safeway Locations in ,Menlo Park,325 S Sharon Park Dr,Menlo Park,94025,(650) 854-3056,California,CA,United States
0,2 Safeway Locations in ,Mill Valley,1 Camino Alto,Mill Valley,94941,(415) 388-6216,California,CA,United States
0,1 Safeway Location in ,Millbrae,525 El Camino Real,Millbrae,94030,(650) 652-3416,California,CA,United States
0,1 Safeway Location in ,Milpitas,555 E Calaveras Blvd,Milpitas,95035,(408) 262-9850,California,CA,United States
0,1 Safeway Location in ,Modesto,2001 Mchenry Ave Suite C,Modesto,95350,(209) 571-6280,California,CA,United States
0,1 Safeway Location in ,Moraga,1355 Moraga Way,Moraga,94556,(925) 376-9492,California,CA,United States
0,2 Safeway Locations in ,Morgan Hill,235 Tennant Station,Morgan Hill,95037,(408) 776-9861,California,CA,United States
0,4 Safeway Locations in ,Mountain View,1750 Miramonte Ave,Mountain View,94040,(650) 903-5850,California,CA,United States
0,1 Safeway Location in ,Napa,3375 Jefferson St,Napa,94558,(707) 225-3037,California,CA,United States
0,1 Safeway Location in ,Newark,5877 Jarvis Ave,Newark,94560,(510) 713-3180,California,CA,United States
0,2 Safeway Locations in ,Novato,5720 Nave Dr,Novato,94949,(415) 881-9256,California,CA,United States
0,6 Safeway Locations in ,Oakland,2096 Mountain Blvd,Oakland,94611,(510) 482-2266,California,CA,United States
0,1 Safeway Location in ,Orinda,2 Camino Sobrante,Orinda,94563,(925) 254-8792,California,CA,United States
0,1 Safeway Location in ,Pacific Grove,1212 Forest Ave,Pacific Grove,93950,(831) 375-8262,California,CA,United States
0,3 Safeway Locations in ,Pacifica,12 Manor Plz,Pacifica,94044,(650) 359-2751,California,CA,United States
0,1 Safeway Location in ,Palo Alto,2811 Middlefield Rd,Palo Alto,94306,(650) 321-8400,California,CA,United States
0,2 Safeway Locations in ,Petaluma,389 S Mcdowell Blvd,Petaluma,94954,(707) 766-9097,California,CA,United States
0,1 Safeway Location in ,Pinole,1421 Tara Hill Dr,Pinole,94564,(510) 724-1525,California,CA,United States
0,1 Safeway Location in ,Pittsburg,660 Bailey Rd,Pittsburg,94565,(925) 458-0181,California,CA,United States
0,1 Safeway Location in ,Placerville,3955 Missouri Flat Rd,Placerville,95667,(530) 295-2972,California,CA,United States
0,3 Safeway Locations in ,Pleasant Hill,1978 Contra Costa Blvd,Pleasant Hill,94523,(925) 688-0680,California,CA,United States
0,2 Safeway Locations in ,Pleasanton,1701 Santa Rita Rd,Pleasanton,94566,(925) 417-5530,California,CA,United States
0,1 Safeway Location in ,Pollock Pines,6498 Pony Express Trail,Pollock Pines,95726,(530) 647-7440,California,CA,United States
0,1 Safeway Location in ,Prunedale,17539 Vierra Canyon Rd,Prunedale,93907,(831) 663-6702,California,CA,United States
0,1 Safeway Location in ,Quincy,20 E Main St,Quincy,95971,(530) 283-1404,California,CA,United States
0,1 Safeway Location in ,Rancho Cordova,10635 Folsom Blvd,Rancho Cordova,95670,(916) 364-4940,California,CA,United States
0,2 Safeway Locations in ,Redding,1070 E Cypress Ave,Redding,96002,(530) 226-5871,California,CA,United States
0,2 Safeway Locations in ,Redwood City,1071 El Camino Real,Redwood City,94063,(650) 306-1900,California,CA,United States
0,2 Safeway Locations in ,Rocklin,2220 Sunset Blvd,Rocklin,95765,(916) 789-0101,California,CA,United States
0,1 Safeway Location in ,Rodeo,605 Parker Ave Bldg A,Rodeo,94572,(510) 799-6200,California,CA,United States
0,1 Safeway Location in ,Rohnert Park,6340 Commerce Blvd,Rohnert Park,94928,(707) 584-8942,California,CA,United States
0,4 Safeway Locations in ,Roseville,1080 Pleasant Grove Blvd,Roseville,95678,(916) 783-2119,California,CA,United States
0,8 Safeway Locations in ,Sacramento,1025 Alhambra Blvd,Sacramento,95816,(916) 456-0852,California,CA,United States
0,1 Safeway Location in ,Saint Helena,1026 Hunt Ave,Saint Helena,94574,(707) 968-3620,California,CA,United States
0,2 Safeway Locations in ,Salinas,1516 Constitution Blvd,Salinas,93905,(831) 444-3625,California,CA,United States
0,1 Safeway Location in ,San Anselmo,838 Sir Francis Drake,San Anselmo,94960,(415) 456-9157,California,CA,United States
0,15 Safeway Locations in ,San Francisco,1335 Webster St,San Francisco,94115,(415) 921-4557,California,CA,United States
0,12 Safeway Locations in ,San Jose,1300 W San Carlos St,San Jose,95126,(408) 882-0999,California,CA,United States
0,3 Safeway Locations in ,San Leandro,1499 Washington Ave,San Leandro,94577,(510) 895-2660,California,CA,United States
0,3 Safeway Locations in ,San Mateo,100 De Anza Blvd,San Mateo,94402,(650) 341-4039,California,CA,United States
0,2 Safeway Locations in ,San Rafael,700 B St,San Rafael,94901,(415) 456-1453,California,CA,United States
0,2 Safeway Locations in ,San Ramon,11050 Bollinger Canyon Rd,San Ramon,94582,(925) 359-2001,California,CA,United States
0,4 Safeway Locations in ,Santa Clara,2605 The Alameda Ave,Santa Clara,95050,(408) 244-6873,California,CA,United States
0,2 Safeway Locations in ,Santa Cruz,117 Morrissey Blvd,Santa Cruz,95062,(831) 426-7489,California,CA,United States
0,6 Safeway Locations in ,Santa Rosa,100 Calistoga Rd,Santa Rosa,95409,(707) 539-1711,California,CA,United States
0,1 Safeway Location in ,Saratoga,12876 Saratoga Sunnyvale Rd,Saratoga,95070,(408) 867-0180,California,CA,United States
0,1 Safeway Location in ,Scotts Valley,253 Mt Hermon Rd,Scotts Valley,95066,(831) 438-7431,California,CA,United States
0,1 Safeway Location in ,Sebastopol,406 N Main St,Sebastopol,95472,(707) 823-1101,California,CA,United States
0,1 Safeway Location in ,Sonoma,477 W Napa St,Sonoma,95476,(707) 996-0633,California,CA,United States
0,1 Safeway Location in ,Sonora,1291 Sanguinetti Rd,Sonora,95370,(209) 533-7810,California,CA,United States
0,1 Safeway Location in ,Soquel,2720 41st Ave,Soquel,95073,(831) 477-7212,California,CA,United States
0,1 Safeway Location in ,South Lake Tahoe,1020 Johnson Ln,South Lake Tahoe,96150,(530) 542-7740,California,CA,United States
0,2 Safeway Locations in ,South San Francisco,2255 Gellert Blvd,South San Francisco,94080,(650) 588-9005,California,CA,United States
0,2 Safeway Locations in ,Stockton,2808 Country Club Blvd,Stockton,95204,(209) 461-5555,California,CA,United States
0,3 Safeway Locations in ,Sunnyvale,150 E El Camino Real,Sunnyvale,94087,(408) 732-1259,California,CA,United States
0,1 Safeway Location in ,Susanville,2970 Main St,Susanville,96130,(530) 257-2029,California,CA,United States
0,1 Safeway Location in ,Tahoe City,850 N Lake Blvd,Tahoe City,96145,(530) 583-2772,California,CA,United States
0,1 Safeway Location in ,Tracy,1801 W 11th St,Tracy,95376,(209) 830-2950,California,CA,United States
0,1 Safeway Location in ,Truckee,11290 Donner Pass Rd,Truckee,96161,(530) 582-7950,California,CA,United States
0,1 Safeway Location in ,Turlock,3051 Countryside Dr,Turlock,95380,(209) 669-2725,California,CA,United States
0,1 Safeway Location in ,Ukiah,653 S State St,Ukiah,95482,(707) 467-2700,California,CA,United States
0,1 Safeway Location in ,Union City,1790 Decoto Rd,Union City,94587,(510) 429-9090,California,CA,United States
0,1 Safeway Location in ,Vacaville,2090 Harbison Dr,Vacaville,95687,(707) 452-7277,California,CA,United States
0,3 Safeway Locations in ,Vallejo,122 Robles Dr,Vallejo,94591,(707) 554-4467,California,CA,United States
0,4 Safeway Locations in ,Walnut Creek,1972 Tice Valley Blvd,Walnut Creek,94595,(925) 939-7213,California,CA,United States
0,1 Safeway Location in ,Willits,845 S Main St,Willits,95490,(707) 459-5862,California,CA,United States
0,1 Safeway Location in ,Windsor,9080 Brooks Rd,Windsor,95492,(707) 837-2000,California,CA,United States
0,1 Safeway Location in ,Alamosa,1301 Main St,Alamosa,81101,(719) 587-3075,Colorado,CO,United States
0,1 Safeway Location in ,Arvada,7561 W 80th Ave,Arvada,80003,(303) 420-0318,Colorado,CO,United States
0,5 Safeway Locations in ,Aurora,1200 S Buckley Rd,Aurora,80017,(303) 750-6802,Colorado,CO,United States
0,3 Safeway Locations in ,Boulder,2798 Arapahoe Ave,Boulder,80302,(303) 443-5888,Colorado,CO,United States
0,1 Safeway Location in ,Brighton,1605 Bridge St,Brighton,80601,(303) 659-6461,Colorado,CO,United States
0,1 Safeway Location in ,Broomfield,3602 W 144th Ave,Broomfield,80020,(303) 209-2405,Colorado,CO,United States
0,1 Safeway Location in ,Burlington,111 18th St,Burlington,80807,(719) 346-8862,Colorado,CO,United States
0,1 Safeway Location in ,Canon City,1414 Main St,Canon City,81212,(719) 275-5221,Colorado,CO,United States
0,1 Safeway Location in ,Castle Rock,880 S Perry St,Castle Rock,80104,(303) 688-5028,Colorado,CO,United States
0,12 Safeway Locations in ,Colorado Springs,1121 N Circle Dr,Colorado Springs,80909,(719) 573-6023,Colorado,CO,United States
0,1 Safeway Location in ,Conifer,27152 Main St,Conifer,80433,(303) 838-4375,Colorado,CO,United States
0,1 Safeway Location in ,Cortez,1580 E Main St,Cortez,81321,(970) 564-9590,Colorado,CO,United States
0,1 Safeway Location in ,Delta,1550 Hwy 92,Delta,81416,(970) 874-9032,Colorado,CO,United States
0,10 Safeway Locations in ,Denver,1653 S Colorado Blvd,Denver,80222,(303) 691-2960,Colorado,CO,United States
0,1 Safeway Location in ,Elizabeth,220 S Elizabeth St,Elizabeth,80107,(303) 646-0336,Colorado,CO,United States
0,2 Safeway Locations in ,Englewood,201 E Jefferson Ave,Englewood,80113,(303) 781-0463,Colorado,CO,United States
0,1 Safeway Location in ,Erie,3333 Arapahoe Rd N #B,Erie,80516,(720) 890-0959,Colorado,CO,United States
0,1 Safeway Location in ,Estes Park,451 E Wonderview Ave,Estes Park,80517,(970) 586-4447,Colorado,CO,United States
0,1 Safeway Location in ,Evergreen,3851 S Hwy 74,Evergreen,80439,(303) 674-6625,Colorado,CO,United States
0,1 Safeway Location in ,Falcon,7655 Mclaughlin Rd,Falcon,80831,(719) 495-7300,Colorado,CO,United States
0,1 Safeway Location in ,Federal Heights,10300 Federal Blvd,Federal Heights,80260,(303) 469-0990,Colorado,CO,United States
0,1 Safeway Location in ,Firestone,8134 County Rd 13,Firestone,80504,(303) 833-2844,Colorado,CO,United States
0,4 Safeway Locations in ,Fort Collins,1426 E Harmony Rd,Fort Collins,80525,(970) 223-6335,Colorado,CO,United States
0,1 Safeway Location in ,Fort Lupton,1300 Dexter St,Fort Lupton,80621,(303) 857-0136,Colorado,CO,United States
0,1 Safeway Location in ,Fort Morgan,620 W Platte Ave,Fort Morgan,80701,(970) 867-3377,Colorado,CO,United States
0,1 Safeway Location in ,Fountain,6925 Mesa Ridge Pkwy,Fountain,80817,(719) 322-9351,Colorado,CO,United States
0,1 Safeway Location in ,Fraser,40 County Rd 804,Fraser,80442,(970) 726-9484,Colorado,CO,United States
0,1 Safeway Location in ,Frisco,1008 Summit Blvd,Frisco,80443,(970) 668-5144,Colorado,CO,United States
0,1 Safeway Location in ,Golden,1701 Jackson St,Golden,80401,(303) 278-1861,Colorado,CO,United States
0,3 Safeway Locations in ,Grand Junction,2512 Broadway,Grand Junction,81507,(970) 257-0072,Colorado,CO,United States
0,2 Safeway Locations in ,Greeley,3526 W 10th St,Greeley,80634,(970) 351-8350,Colorado,CO,United States
0,1 Safeway Location in ,Gunnison,112 S Spruce St,Gunnison,81230,(970) 641-0787,Colorado,CO,United States
0,1 Safeway Location in ,Highlands Ranch,9255 S Broadway,Highlands Ranch,80129,(303) 683-1983,Colorado,CO,United States
0,1 Safeway Location in ,Idaho Springs,2425 Miner St,Idaho Springs,80452,(303) 567-4471,Colorado,CO,United States
0,1 Safeway Location in ,La Junta,315 W 2nd St,La Junta,81050,(719) 384-4861,Colorado,CO,United States
0,3 Safeway Locations in ,Lakewood,11088 W Jewell,Lakewood,80232,(303) 989-8810,Colorado,CO,United States
0,1 Safeway Location in ,Lamar,906 E Olive St,Lamar,81052,(719) 336-2540,Colorado,CO,United States
0,1 Safeway Location in ,Leadville,1900 N Poplar Way,Leadville,80461,(719) 486-0795,Colorado,CO,United States
0,5 Safeway Locations in ,Littleton,12442 W Ken Caryl Ave,Littleton,80127,(303) 978-1859,Colorado,CO,United States
0,1 Safeway Location in ,Lone Tree,9229 E Lincoln Ave,Lone Tree,80124,(303) 649-9111,Colorado,CO,United States
0,2 Safeway Locations in ,Longmont,1050 Ken Pratt Blvd,Longmont,80501,(303) 651-7952,Colorado,CO,United States
0,1 Safeway Location in ,Louisville,910 W Cherry St,Louisville,80027,(303) 666-8950,Colorado,CO,United States
0,3 Safeway Locations in ,Loveland,1451 W Eisenhower Blvd,Loveland,80537,(970) 593-9779,Colorado,CO,United States
0,1 Safeway Location in ,Monte Vista,1200 2nd Ave,Monte Vista,81144,(719) 852-5121,Colorado,CO,United States
0,1 Safeway Location in ,Montrose,1329 S Townsend Ave,Montrose,81401,(970) 249-8822,Colorado,CO,United States
0,1 Safeway Location in ,Monument,624 Hwy 105,Monument,80132,(719) 488-1187,Colorado,CO,United States
0,1 Safeway Location in ,Northglenn,500 E 120th Ave,Northglenn,80233,(303) 450-2462,Colorado,CO,United States
0,1 Safeway Location in ,Parker,11051 S Parker Rd,Parker,80134,(303) 840-1604,Colorado,CO,United States
0,2 Safeway Locations in ,Pueblo,1017 N Market Plaza,Pueblo,81007,(719) 547-2108,Colorado,CO,United States
0,1 Safeway Location in ,Salida,232 G St,Salida,81201,(719) 539-3513,Colorado,CO,United States
0,1 Safeway Location in ,Steamboat Springs,37500 E US Hwy 40,Steamboat Springs,80487,(970) 879-3766,Colorado,CO,United States
0,1 Safeway Location in ,Superior,1601 Coalton Rd,Superior,80027,(303) 543-1153,Colorado,CO,United States
0,2 Safeway Locations in ,Thornton,3840 E 104th Ave,Thornton,80233,(303) 255-7347,Colorado,CO,United States
0,1 Safeway Location in ,Trinidad,457 W Main St,Trinidad,81082,(719) 846-2246,Colorado,CO,United States
0,1 Safeway Location in ,Vail,2131 N Frontage Rd W,Vail,81657,(970) 476-3561,Colorado,CO,United States
0,1 Safeway Location in ,Walsenburg,222 W 7th St,Walsenburg,81089,(719) 738-3300,Colorado,CO,United States
0,1 Safeway Location in ,Wheat Ridge,3900 Wadsworth Blvd,Wheat Ridge,80033,(303) 456-2670,Colorado,CO,United States
0,1 Safeway Location in ,Windsor,1535 Main St,Windsor,80550,(970) 674-1177,Colorado,CO,United States
0,1 Safeway Location in ,Woodland Park,1101 E US Hwy 24,Woodland Park,80863,(719) 686-1836,Colorado,CO,United States
0,11 Safeway Locations in ,Washington,1100 4th St SW,Washington,20024,(202) 554-9155,Washington DC,DC,United States
0,1 Safeway Location in ,Dover,190 John Hunn Brown Rd,Dover,19901,(302) 730-9100,Delaware,DE,United States
0,1 Safeway Location in ,Newark,2400 Peoples Plaza,Newark,19702,(302) 832-8290,Delaware,DE,United States
0,1 Safeway Location in ,Rehoboth Beach,19283 Coastal Hwy,Rehoboth Beach,19971,(302) 226-3073,Delaware,DE,United States
0,1 Safeway Location in ,Aiea,98-1277 Kaahumanu St,Aiea,96701,(808) 483-5900,Hawaii,HI,United States
0,1 Safeway Location in ,Ewa Beach,91-1119 Keaunui Dr,Ewa Beach,96706,(808) 683-3200,Hawaii,HI,United States
0,1 Safeway Location in ,Hilo,381 E Maka'Ala St,Hilo,96720,(808) 339-3795,Hawaii,HI,United States
0,6 Safeway Locations in ,Honolulu,1234 S Beretania St,Honolulu,96814,(808) 535-1780,Hawaii,HI,United States
0,1 Safeway Location in ,Kahului,1090 Ho'okele St,Kahului,96732,(808) 359-2970,Hawaii,HI,United States
0,1 Safeway Location in ,Kailua Kona,75-1027 Henry St,Kailua Kona,96740,(808) 329-2207,Hawaii,HI,United States
0,3 Safeway Locations in ,Kailua,1060 Keolu Dr,Kailua,96734,(808) 266-5200,Hawaii,HI,United States
0,1 Safeway Location in ,Kaneohe,46065 Kamehameha Hwy,Kaneohe,96744,(808) 233-5800,Hawaii,HI,United States
0,1 Safeway Location in ,Kapaa,4-831 Kuhio Hwy,Kapaa,96746,(808) 822-2464,Hawaii,HI,United States
0,1 Safeway Location in ,Kapolei,590 Farrington N 400,Kapolei,96707,(808) 674-0070,Hawaii,HI,United States
0,1 Safeway Location in ,Kihei,277 Pi'Ikea Ave,Kihei,96753,(808) 891-9120,Hawaii,HI,United States
0,1 Safeway Location in ,Lahaina,1221 Honoapiilani Hwy,Lahaina,96761,(808) 667-4392,Hawaii,HI,United States
0,1 Safeway Location in ,Lihue,4454 Nuhou St Suite #301,Lihue,96766,(808) 246-0290,Hawaii,HI,United States
0,1 Safeway Location in ,Mililani,94-780B Meheula Pkwy,Mililani,96789,(808) 623-8111,Hawaii,HI,United States
0,1 Safeway Location in ,Wailuku,58 Maui Lani Pkwy Suite 5000,Wailuku,96793,(808) 243-3522,Hawaii,HI,United States
0,1 Safeway Location in ,Waipahu,94-809 Lumiaina St,Waipahu,96797,(808) 664-7725,Hawaii,HI,United States
0,1 Safeway Location in ,Bonners Ferry,6519 S Main St,Bonners Ferry,83805,(208) 267-1650,Idaho,ID,United States
0,2 Safeway Locations in ,Coeur D'Alene,1001 N 4th St,Coeur D'Alene,83814,(208) 664-6019,Idaho,ID,United States
0,1 Safeway Location in ,Moscow,1320 S Blaine St,Moscow,83843,(208) 883-0713,Idaho,ID,United States
0,1 Safeway Location in ,Sandpoint,702 N 5th Ave,Sandpoint,83864,(208) 263-9638,Idaho,ID,United States
0,2 Safeway Locations in ,Annapolis,1781 Forest Dr,Annapolis,21401,(410) 626-2710,Maryland,MD,United States
0,1 Safeway Location in ,Arnold,1451 S Ritchie Hwy,Arnold,21012,(410) 919-1000,Maryland,MD,United States
0,4 Safeway Locations in ,Baltimore,2401 N Charles St,Baltimore,21218,(410) 261-6110,Maryland,MD,United States
0,1 Safeway Location in ,Bel Air,225 Brierhill Dr,Bel Air,21015,(410) 420-2050,Maryland,MD,United States
0,2 Safeway Locations in ,Bethesda,4701 Sangamore Rd,Bethesda,20816,(301) 320-1770,Maryland,MD,United States
0,2 Safeway Locations in ,Bowie,12410 Fairwood Pkwy,Bowie,20720,(301) 867-0340,Maryland,MD,United States
0,1 Safeway Location in ,Brandywine,15916 S Crain Hwy,Brandywine,20613,(301) 242-9260,Maryland,MD,United States
0,1 Safeway Location in ,Chester,1925 Main St,Chester,21619,(410) 604-0656,Maryland,MD,United States
0,1 Safeway Location in ,Clinton,8785 Branch Ave,Clinton,20735,(301) 856-7850,Maryland,MD,United States
0,1 Safeway Location in ,Columbia,5485 Harpers Farm Rd,Columbia,21044,(410) 740-4501,Maryland,MD,United States
0,1 Safeway Location in ,Damascus,9807 Main St,Damascus,20872,(301) 391-6146,Maryland,MD,United States
0,1 Safeway Location in ,Dunkirk,10276 Southern Maryland Blvd,Dunkirk,20754,(301) 855-3765,Maryland,MD,United States
0,1 Safeway Location in ,Edgewater,52 W Central Ave,Edgewater,21037,(410) 919-1156,Maryland,MD,United States
0,1 Safeway Location in ,Eldersburg,1313 Londontown Blvd,Eldersburg,21784,(410) 552-1021,Maryland,MD,United States
0,2 Safeway Locations in ,Ellicott City,10000 Baltimore National Pike,Ellicott City,21042,(410) 750-3000,Maryland,MD,United States
0,1 Safeway Location in ,Fort Washington,990 E Swan Creek Rd,Fort Washington,20744,(301) 965-6000,Maryland,MD,United States
0,2 Safeway Locations in ,Gaithersburg,12251 Darnestown Rd,Gaithersburg,20878,(301) 417-0866,Maryland,MD,United States
0,1 Safeway Location in ,Gambrills,2644 Chapel Lake Dr,Gambrills,21054,(410) 451-4750,Maryland,MD,United States
0,1 Safeway Location in ,Germantown,19718 Germantown Rd,Germantown,20874,(301) 916-8584,Maryland,MD,United States
0,1 Safeway Location in ,Greenbelt,7595 Greenbelt Rd,Greenbelt,20770,(301) 345-0150,Maryland,MD,United States
0,1 Safeway Location in ,Hanover,7643 Arundel Mills Blvd,Hanover,21076,(410) 904-7222,Maryland,MD,United States
0,1 Safeway Location in ,Hyattsville,3702 East-West Hwy,Hyattsville,20782,(301) 955-1941,Maryland,MD,United States
0,1 Safeway Location in ,Kensington,10541 Connecticut Ave,Kensington,20895,(301) 945-4273,Maryland,MD,United States
0,1 Safeway Location in ,La Plata,40 Shining Willow Way,La Plata,20646,(301) 392-1875,Maryland,MD,United States
0,1 Safeway Location in ,Middletown,815 E Main St,Middletown,21769,(301) 371-3126,Maryland,MD,United States
0,1 Safeway Location in ,Mount Airy,337 E Ridgeville Blvd,Mount Airy,21771,(301) 829-6517,Maryland,MD,United States
0,1 Safeway Location in ,Olney,3333 Spartan Rd,Olney,20832,(301) 774-8153,Maryland,MD,United States
0,1 Safeway Location in ,Owings Mills,10335 Reisterstown Rd,Owings Mills,21117,(410) 998-3820,Maryland,MD,United States
0,1 Safeway Location in ,Oxon Hill,6235 Oxon Hill Rd,Oxon Hill,20745,(301) 839-0718,Maryland,MD,United States
0,1 Safeway Location in ,Parkville,8858 Waltham Woods Rd,Parkville,21234,(410) 882-8822,Maryland,MD,United States
0,1 Safeway Location in ,Pasadena,4211 Mountain Rd,Pasadena,21122,(410) 439-4560,Maryland,MD,United States
0,1 Safeway Location in ,Perry Hall,9645 Belair Rd,Perry Hall,21128,(410) 256-3021,Maryland,MD,United States
0,1 Safeway Location in ,Phoenix,3499 Sweet Air Rd,Phoenix,21131,(410) 666-0787,Maryland,MD,United States
0,1 Safeway Location in ,Potomac,10104 River Rd,Potomac,20854,(301) 983-2150,Maryland,MD,United States
0,1 Safeway Location in ,Prince Frederick,80 W Dares Beach Rd,Prince Frederick,20678,(410) 414-7400,Maryland,MD,United States
0,4 Safeway Locations in ,Rockville,14939 Shady Grove Rd,Rockville,20850,(301) 944-1584,Maryland,MD,United States
0,1 Safeway Location in ,Severna Park,540 Benfield Rd,Severna Park,21146,(410) 647-9487,Maryland,MD,United States
0,4 Safeway Locations in ,Silver Spring,10101 New Hampshire Ave,Silver Spring,20903,(301) 445-6190,Maryland,MD,United States
0,1 Safeway Location in ,Towson,1017 York Rd,Towson,21204,(410) 296-2267,Maryland,MD,United States
0,1 Safeway Location in ,Upper Marlboro,7605 Crain Hwy,Upper Marlboro,20772,(301) 574-1351,Maryland,MD,United States
0,2 Safeway Locations in ,Waldorf,10 King St,Waldorf,20602,(301) 843-2825,Maryland,MD,United States
0,1 Safeway Location in ,Walkersville,151 Walkers Village Way,Walkersville,21793,(301) 845-2844,Maryland,MD,United States
0,1 Safeway Location in ,Westminster,444 WMC Dr #116,Westminster,21158,(410) 871-1200,Maryland,MD,United States
0,1 Safeway Location in ,Wheaton,11201 Georgia Ave,Wheaton,20902,(301) 933-0436,Maryland,MD,United States
0,1 Safeway Location in ,Bozeman,1735 W Main St,Bozeman,59715,(406) 587-9017,Montana,MT,United States
0,2 Safeway Locations in ,Butte,2500 Massachusetts Ave,Butte,59701,(406) 494-7046,Montana,MT,United States
0,1 Safeway Location in ,Deer Lodge,201 N Main St,Deer Lodge,59722,(406) 846-1550,Montana,MT,United States
0,1 Safeway Location in ,Dillon,570 N Montana St,Dillon,59725,(406) 683-5002,Montana,MT,United States
0,1 Safeway Location in ,Hamilton,101 E Main St,Hamilton,59840,(406) 363-2270,Montana,MT,United States
0,1 Safeway Location in ,Helena,611 N Montana Ave,Helena,59601,(406) 443-1598,Montana,MT,United States
0,1 Safeway Location in ,Polson,146 South Shore Route,Polson,59860,(406) 883-2340,Montana,MT,United States
0,1 Safeway Location in ,Whitefish,6580 Hwy 93 S,Whitefish,59937,(406) 862-3006,Montana,MT,United States
0,1 Safeway Location in ,Alliance,500 E 3rd St,Alliance,69301,(308) 762-4661,Nebraska,NE,United States
0,1 Safeway Location in ,Chadron,230 Morehead St,Chadron,69337,(308) 432-4428,Nebraska,NE,United States
0,1 Safeway Location in ,Ogallala,611 N Spruce St,Ogallala,69153,(308) 284-4044,Nebraska,NE,United States
0,1 Safeway Location in ,Scottsbluff,601 Broadway,Scottsbluff,69361,(308) 635-1232,Nebraska,NE,United States
0,1 Safeway Location in ,Sidney,1944 Illinois St,Sidney,69162,(308) 254-4767,Nebraska,NE,United States
0,1 Safeway Location in ,Aztec,415 N Main Ave,Aztec,87410,(505) 334-7334,New Mexico,NM,United States
0,2 Safeway Locations in ,Farmington,3540 E Main St,Farmington,87402,(505) 327-3349,New Mexico,NM,United States
0,1 Safeway Location in ,Gallup,980 N Hwy 491,Gallup,87301,(505) 722-7620,New Mexico,NM,United States
0,1 Safeway Location in ,Fallon,890 W Williams Ave,Fallon,89406,(775) 428-2330,Nevada,NV,United States
0,1 Safeway Location in ,Hawthorne,1095 Hwy 95,Hawthorne,89415,(775) 945-2159,Nevada,NV,United States
0,1 Safeway Location in ,Lovelock,400 Dartmouth Ave,Lovelock,89419,(775) 273-2418,Nevada,NV,United States
0,1 Safeway Location in ,Reno,5150 Mae Anne Ave,Reno,89523,(775) 746-9000,Nevada,NV,United States
0,1 Safeway Location in ,Sparks,2858 Vista Blvd,Sparks,89434,(775) 352-8470,Nevada,NV,United States
0,1 Safeway Location in ,Zephyr Cove,212 Elks Point Rd,Zephyr Cove,89448,(775) 586-8387,Nevada,NV,United States
0,1 Safeway Location in ,Albany,1990 14th Ave SE,Albany,97322,(541) 812-2380,Oregon,OR,United States
0,1 Safeway Location in ,Aloha,20535 SW Tualatin Valley Hwy,Aloha,97006,(503) 259-3180,Oregon,OR,United States
0,1 Safeway Location in ,Ashland,585 Siskiyou Blvd,Ashland,97520,(541) 482-7777,Oregon,OR,United States
0,1 Safeway Location in ,Astoria,3250 Leif Erickson Dr,Astoria,97103,(503) 338-2960,Oregon,OR,United States
0,1 Safeway Location in ,Baker City,1205 Campbell St,Baker City,97814,(541) 523-7276,Oregon,OR,United States
0,2 Safeway Locations in ,Beaverton,14555 SW Teal Blvd,Beaverton,97007,(503) 590-9755,Oregon,OR,United States
0,3 Safeway Locations in ,Bend,2650 NE Hwy 20,Bend,97701,(541) 383-6500,Oregon,OR,United States
0,1 Safeway Location in ,Boring,20151 SE Hwy 212,Boring,97089,(503) 658-7000,Oregon,OR,United States
0,1 Safeway Location in ,Burns,246 W Monroe St,Burns,97720,(541) 573-8580,Oregon,OR,United States
0,1 Safeway Location in ,Canby,1051 SW 1st Ave,Canby,97013,(503) 266-5890,Oregon,OR,United States
0,1 Safeway Location in ,Clackamas,12032 SE Sunnyside Rd,Clackamas,97015,(503) 698-1121,Oregon,OR,United States
0,1 Safeway Location in ,Clatskanie,401 W Columbia River Hwy,Clatskanie,97016,(503) 728-2490,Oregon,OR,United States
0,1 Safeway Location in ,Coos Bay,230 E Johnson Ave,Coos Bay,97420,(541) 267-1700,Oregon,OR,United States
0,1 Safeway Location in ,Coquille,155 E 1st St,Coquille,97423,(541) 396-2223,Oregon,OR,United States
0,3 Safeway Locations in ,Corvallis,450 SW Third Ave,Corvallis,97333,(541) 750-0160,Oregon,OR,United States
0,1 Safeway Location in ,Cottage Grove,1500 E Main St,Cottage Grove,97424,(541) 942-3413,Oregon,OR,United States
0,1 Safeway Location in ,Dallas,138 W Ellendale Ave,Dallas,97338,(503) 831-6000,Oregon,OR,United States
0,1 Safeway Location in ,Enterprise,601 W North St,Enterprise,97828,(541) 426-3722,Oregon,OR,United States
0,3 Safeway Locations in ,Eugene,145 E 18th Ave,Eugene,97401,(541) 485-5051,Oregon,OR,United States
0,1 Safeway Location in ,Florence,700 Hwy 101,Florence,97439,(541) 902-1900,Oregon,OR,United States
0,1 Safeway Location in ,Forest Grove,2836 Pacific Ave,Forest Grove,97116,(503) 359-8700,Oregon,OR,United States
0,1 Safeway Location in ,Gladstone,95 82nd Dr,Gladstone,97027,(503) 723-2680,Oregon,OR,United States
0,2 Safeway Locations in ,Grants Pass,115 E 7th St,Grants Pass,97526,(541) 956-7540,Oregon,OR,United States
0,2 Safeway Locations in ,Gresham,1001 SW Highland Dr,Gresham,97080,(503) 674-7080,Oregon,OR,United States
0,1 Safeway Location in ,Hermiston,990 Hwy 395 S,Hermiston,97838,(541) 564-1280,Oregon,OR,United States
0,2 Safeway Locations in ,Hillsboro,2177 NW 185th Ave,Hillsboro,97124,(503) 645-6631,Oregon,OR,United States
0,1 Safeway Location in ,Hood River,2249 Cascade Ave,Hood River,97031,(541) 386-1841,Oregon,OR,United States
0,1 Safeway Location in ,Junction City,1755 Ivy St,Junction City,97448,(541) 998-4520,Oregon,OR,United States
0,1 Safeway Location in ,Keizer,4990 River Rd,Keizer,97303,(503) 390-8810,Oregon,OR,United States
0,1 Safeway Location in ,King City,15570 SW Pacific Hwy,King City,97224,(503) 598-6001,Oregon,OR,United States
0,1 Safeway Location in ,La Grande,2111 Adams Ave,La Grande,97850,(541) 663-2700,Oregon,OR,United States
0,2 Safeway Locations in ,Lake Oswego,17779 Boones Ferry Rd,Lake Oswego,97035,(503) 675-2500,Oregon,OR,United States
0,1 Safeway Location in ,Lakeview,244 N F St,Lakeview,97630,(541) 947-2324,Oregon,OR,United States
0,1 Safeway Location in ,Lebanon,1983 S Main St,Lebanon,97355,(541) 259-5700,Oregon,OR,United States
0,1 Safeway Location in ,Lincoln City,4101 NW Logan Rd,Lincoln City,97367,(541) 994-8667,Oregon,OR,United States
0,1 Safeway Location in ,Madras,80 NE Cedar St,Madras,97741,(541) 325-0460,Oregon,OR,United States
0,1 Safeway Location in ,McMinnville,2490 N Hwy 99 W,McMinnville,97128,(503) 435-3120,Oregon,OR,United States
0,2 Safeway Locations in ,Medford,1003 Medford Ctr,Medford,97504,(541) 608-3680,Oregon,OR,United States
0,1 Safeway Location in ,Milton Freewater,455 N Columbia St,Milton Freewater,97862,(541) 938-5341,Oregon,OR,United States
0,2 Safeway Locations in ,Milwaukie,14840 SE Webster Rd,Milwaukie,97267,(503) 303-1071,Oregon,OR,United States
0,1 Safeway Location in ,Molalla,1525 W Main St,Molalla,97038,(503) 829-4848,Oregon,OR,United States
0,1 Safeway Location in ,Newberg,1140 N Springbrook Rd,Newberg,97132,(503) 537-4001,Oregon,OR,United States
0,1 Safeway Location in ,Newport,2220 N Coast Hwy,Newport,97365,(541) 265-2930,Oregon,OR,United States
0,1 Safeway Location in ,North Bend,1735 Virginia Ave,North Bend,97459,(541) 751-7000,Oregon,OR,United States
0,1 Safeway Location in ,Oregon City,13434 Colton Pl,Oregon City,97045,(503) 655-8155,Oregon,OR,United States
0,1 Safeway Location in ,Pendleton,201 SW 20th St,Pendleton,97801,(541) 278-4280,Oregon,OR,United States
0,12 Safeway Locations in ,Portland,1030 SW Jefferson St,Portland,97201,(503) 205-1849,Oregon,OR,United States
0,1 Safeway Location in ,Redmond,1705 S Hwy 97,Redmond,97756,(541) 504-4160,Oregon,OR,United States
0,1 Safeway Location in ,Reedsport,1499 Hwy 101,Reedsport,97467,(541) 271-3142,Oregon,OR,United States
0,1 Safeway Location in ,Roseburg,1539 NE Stephens St,Roseburg,97470,(541) 957-2540,Oregon,OR,United States
0,1 Safeway Location in ,Saint Helens,795 Lower Columbia River Hwy,Saint Helens,97051,(503) 397-2630,Oregon,OR,United States
0,4 Safeway Locations in ,Salem,1265 Center St,Salem,97301,(503) 566-5540,Oregon,OR,United States
0,1 Safeway Location in ,Sandy,37601 Hwy 26,Sandy,97055,(503) 668-3202,Oregon,OR,United States
0,1 Safeway Location in ,Seaside,401 S Roosevelt Dr,Seaside,97138,(503) 738-4700,Oregon,OR,United States
0,1 Safeway Location in ,Sherwood,20685 SW Roy Rogers,Sherwood,97140,(503) 625-4760,Oregon,OR,United States
0,1 Safeway Location in ,Silverton,301 Westfield St,Silverton,97381,(503) 873-1800,Oregon,OR,United States
0,1 Safeway Location in ,Springfield,1891 Pioneer Pkwy E,Springfield,97477,(541) 747-0715,Oregon,OR,United States
0,1 Safeway Location in ,Stayton,1535 N 1st St,Stayton,97383,(503) 769-4814,Oregon,OR,United States
0,1 Safeway Location in ,Sweet Home,1540 Main St,Sweet Home,97386,(541) 367-0670,Oregon,OR,United States
0,1 Safeway Location in ,The Dalles,520 Mt Hood St,The Dalles,97058,(541) 296-9488,Oregon,OR,United States
0,1 Safeway Location in ,Tillamook,1815 4th St,Tillamook,97141,(503) 842-4608,Oregon,OR,United States
0,1 Safeway Location in ,Troutdale,2501 SW Cherry Park Rd,Troutdale,97060,(503) 674-7000,Oregon,OR,United States
0,1 Safeway Location in ,West Linn,22000 Salamo Rd,West Linn,97068,(503) 650-8954,Oregon,OR,United States
0,1 Safeway Location in ,Wilsonville,8255 SW Wilsonville Rd,Wilsonville,97070,(503) 404-2819,Oregon,OR,United States
0,1 Safeway Location in ,Woodburn,1550 N Pacific Hwy,Woodburn,97071,(503) 982-2756,Oregon,OR,United States
0,2 Safeway Locations in ,Rapid City,2120 Mt Rushmore Rd,Rapid City,57701,(605) 348-5125,South Dakota,SD,United States
0,1 Safeway Location in ,Spearfish,1606 North Ave,Spearfish,57783,(605) 642-5728,South Dakota,SD,United States
0,8 Safeway Locations in ,Alexandria,1624 Belle View,Alexandria,22307,(703) 765-3434,Virginia,VA,United States
0,1 Safeway Location in ,Annandale,7414 Little River Turnpike,Annandale,22003,(703) 941-3874,Virginia,VA,United States
0,4 Safeway Locations in ,Arlington,1525 Wilson Blvd,Arlington,22209,(703) 276-9315,Virginia,VA,United States
0,1 Safeway Location in ,Bristow,12821 Braemar Village Plaza,Bristow,20136,(703) 257-0153,Virginia,VA,United States
0,2 Safeway Locations in ,Burke,5727 Burke Centre Pkwy,Burke,22015,(703) 323-8784,Virginia,VA,United States
0,1 Safeway Location in ,Culpeper,309 Southgate Shopping Ctr,Culpeper,22701,(540) 825-8337,Virginia,VA,United States
0,1 Safeway Location in ,Dale City,4215 Cheshire Station Plaza,Dale City,22193,(703) 590-5530,Virginia,VA,United States
0,4 Safeway Locations in ,Fairfax,10350 Willard Way,Fairfax,22030,(703) 591-8473,Virginia,VA,United States
0,2 Safeway Locations in ,Falls Church,6118 Arlington Blvd,Falls Church,22044,(703) 531-0030,Virginia,VA,United States
0,1 Safeway Location in ,Great Falls,9881 Georgetown Pike,Great Falls,22066,(703) 759-3802,Virginia,VA,United States
0,1 Safeway Location in ,Herndon,413 Elden St,Herndon,20170,(571) 262-2968,Virginia,VA,United States
0,1 Safeway Location in ,Leesburg,437 S King St,Leesburg,20175,(703) 777-5833,Virginia,VA,United States
0,3 Safeway Locations in ,Mclean,1330 Chain Bridge Rd,Mclean,22101,(703) 356-6118,Virginia,VA,United States
0,1 Safeway Location in ,Middleburg,12 W Washington St,Middleburg,20117,(540) 687-6401,Virginia,VA,United States
0,2 Safeway Locations in ,Reston,11120 S Lakes Dr,Reston,20191,(703) 620-3400,Virginia,VA,United States
0,2 Safeway Locations in ,Sterling,22350 S Sterling Blvd,Sterling,20164,(703) 948-1080,Virginia,VA,United States
0,1 Safeway Location in ,Warrenton,189 W Lee Hwy,Warrenton,20186,(540) 347-7909,Virginia,VA,United States
0,2 Safeway Locations in ,Woodbridge,2205 Old Bridge Rd,Woodbridge,22192,(703) 494-8858,Virginia,VA,United States
0,1 Safeway Location in ,Aberdeen,221 W Heron St,Aberdeen,98520,(360) 533-1955,Washington,WA,United States
0,1 Safeway Location in ,Anacortes,911 11th St,Anacortes,98221,(360) 293-5393,Washington,WA,United States
0,2 Safeway Locations in ,Arlington,20500 Olympic Pl,Arlington,98223,(360) 435-3636,Washington,WA,United States
0,1 Safeway Location in ,Auburn,101 Auburn Way S,Auburn,98002,(253) 804-0138,Washington,WA,United States
0,1 Safeway Location in ,Bainbridge Island,253 High School Rd NE,Bainbridge Island,98110,(206) 842-7197,Washington,WA,United States
0,1 Safeway Location in ,Battle Ground,904 W Main St,Battle Ground,98604,(360) 666-2230,Washington,WA,United States
0,1 Safeway Location in ,Belfair,23961 NE State Route 3,Belfair,98528,(360) 275-0922,Washington,WA,United States
0,3 Safeway Locations in ,Bellevue,15100 SE 38th St,Bellevue,98006,(425) 641-2783,Washington,WA,United States
0,1 Safeway Location in ,Bellingham,1275 E Sunset Dr,Bellingham,98226,(360) 647-8311,Washington,WA,United States
0,1 Safeway Location in ,Bonney Lake,21301 Hwy 410,Bonney Lake,98391,(253) 862-1212,Washington,WA,United States
0,2 Safeway Locations in ,Bothell,20711 Bothell Hwy,Bothell,98012,(425) 483-1060,Washington,WA,United States
0,2 Safeway Locations in ,Bremerton,1401 NE McWilliams Rd,Bremerton,98311,(360) 373-8911,Washington,WA,United States
0,2 Safeway Locations in ,Burien,12725 1st Ave S,Burien,98168,(206) 439-7212,Washington,WA,United States
0,1 Safeway Location in ,Camas,800 NE 3rd Ave,Camas,98607,(360) 834-7933,Washington,WA,United States
0,1 Safeway Location in ,Centralia,1129 Harrison Ave,Centralia,98531,(360) 330-0884,Washington,WA,United States
0,1 Safeway Location in ,Chehalis,1100 S Market Blvd,Chehalis,98532,(360) 748-3777,Washington,WA,United States
0,1 Safeway Location in ,Chelan,106 W Manson Rd,Chelan,98816,(509) 682-2615,Washington,WA,United States
0,1 Safeway Location in ,Cheney,2710 1st St,Cheney,99004,(509) 235-6400,Washington,WA,United States
0,1 Safeway Location in ,Chewelah,10 W Colville Ave,Chewelah,99109,(509) 935-8383,Washington,WA,United States
0,1 Safeway Location in ,Cle Elum,804 W 1st St,Cle Elum,98922,(509) 674-2580,Washington,WA,United States
0,1 Safeway Location in ,Colville,391 N Main St,Colville,99114,(509) 684-3782,Washington,WA,United States
0,1 Safeway Location in ,Covington,17023 SE 272nd,Covington,98042,(253) 630-0063,Washington,WA,United States
0,1 Safeway Location in ,Davenport,1220 Morgan St,Davenport,99122,(509) 725-7151,Washington,WA,United States
0,2 Safeway Locations in ,Des Moines,21401 Pacific Hwy S,Des Moines,98198,(206) 824-2737,Washington,WA,United States
0,1 Safeway Location in ,Duvall,14020 Main St NE,Duvall,98019,(425) 844-1188,Washington,WA,United States
0,1 Safeway Location in ,East Wenatchee,510 Grant Rd,East Wenatchee,98802,(509) 884-0707,Washington,WA,United States
0,1 Safeway Location in ,Edmonds,23632 Hwy 99,Edmonds,98026,(425) 778-1411,Washington,WA,United States
0,1 Safeway Location in ,Ellensburg,400 N Ruby St,Ellensburg,98926,(509) 925-2700,Washington,WA,United States
0,1 Safeway Location in ,Enumclaw,152 Roosevelt Ave E,Enumclaw,98022,(360) 825-5023,Washington,WA,United States
0,1 Safeway Location in ,Ephrata,1150 Basin St SW,Ephrata,98823,(509) 754-4441,Washington,WA,United States
0,5 Safeway Locations in ,Everett,11031 19th Ave SE,Everett,98208,(425) 337-0886,Washington,WA,United States
0,3 Safeway Locations in ,Federal Way,1207 S 320th St,Federal Way,98003,(253) 839-8503,Washington,WA,United States
0,1 Safeway Location in ,Gig Harbor,4831 Point Fosdick Dr NW,Gig Harbor,98335,(253) 853-1950,Washington,WA,United States
0,1 Safeway Location in ,Graham,10105 224th St E,Graham,98338,(253) 847-7050,Washington,WA,United States
0,1 Safeway Location in ,Grand Coulee,320 Midway Ave,Grand Coulee,99133,(509) 633-2411,Washington,WA,United States
0,1 Safeway Location in ,Grandview,610 E Wine Country Rd,Grandview,98930,(509) 882-1325,Washington,WA,United States
0,2 Safeway Locations in ,Issaquah,1451 Highlands Dr,Issaquah,98029,(425) 369-3113,Washington,WA,United States
0,1 Safeway Location in ,Kelso,411 Three Rivers Dr,Kelso,98626,(360) 636-4548,Washington,WA,United States
0,1 Safeway Location in ,Kenmore,6850 NE Bothell Way,Kenmore,98028,(425) 487-2001,Washington,WA,United States
0,1 Safeway Location in ,Kennewick,2825 W Kennewick Ave,Kennewick,99336,(509) 783-9562,Washington,WA,United States
0,3 Safeway Locations in ,Kent,13101 SE Kent-Kangley Rd,Kent,98030,(253) 638-7275,Washington,WA,United States
0,3 Safeway Locations in ,Kirkland,10020 NE 137th St,Kirkland,98034,(425) 821-9224,Washington,WA,United States
0,3 Safeway Locations in ,Lacey,1243 Marvin Rd NE,Lacey,98516,(360) 438-3914,Washington,WA,United States
0,1 Safeway Location in ,Lake Stevens,717 SR 9 NE,Lake Stevens,98258,(425) 249-4000,Washington,WA,United States
0,1 Safeway Location in ,Lakewood,10223 Gravelly Lake Dr SW,Lakewood,98499,(253) 581-2072,Washington,WA,United States
0,1 Safeway Location in ,Leavenworth,116 Riverbend Dr,Leavenworth,98826,(509) 548-5435,Washington,WA,United States
0,1 Safeway Location in ,Liberty Lake,1304 N Liberty Lake Rd,Liberty Lake,99019,(509) 924-2374,Washington,WA,United States
0,2 Safeway Locations in ,Longview,1227 15th Ave,Longview,98632,(360) 575-6600,Washington,WA,United States
0,1 Safeway Location in ,Lynden,8071 Guide Meridian Rd #101,Lynden,98264,(360) 318-0688,Washington,WA,United States
0,3 Safeway Locations in ,Lynnwood,12811 Beverly Park Rd,Lynnwood,98087,(425) 347-3060,Washington,WA,United States
0,1 Safeway Location in ,Maple Valley,26916 Maple Valley Rd,Maple Valley,98038,(425) 432-2020,Washington,WA,United States
0,1 Safeway Location in ,Marysville,1258 State St,Marysville,98270,(360) 658-8483,Washington,WA,United States
0,1 Safeway Location in ,Mill Creek,16304 Bothell Everett Hwy,Mill Creek,98012,(425) 743-3095,Washington,WA,United States
0,1 Safeway Location in ,Milton,900 E Meridian Ave Suite 12,Milton,98354,(253) 927-2332,Washington,WA,United States
0,1 Safeway Location in ,Monroe,19651 Hwy 2,Monroe,98272,(360) 794-9292,Washington,WA,United States
0,1 Safeway Location in ,Moses Lake,601 S Pioneer Way,Moses Lake,98837,(509) 765-3961,Washington,WA,United States
0,1 Safeway Location in ,Mount Vernon,315 E College Way,Mount Vernon,98273,(360) 424-8160,Washington,WA,United States
0,1 Safeway Location in ,Mountlake Terrace,4301 212th St SW,Mountlake Terrace,98043,(425) 775-4154,Washington,WA,United States
0,1 Safeway Location in ,Newcastle,6911 Coal Creek Pkwy SE,Newcastle,98059,(425) 641-0902,Washington,WA,United States
0,1 Safeway Location in ,Newport,121 W Walnut St,Newport,99156,(509) 447-2506,Washington,WA,United States
0,1 Safeway Location in ,North Bend,460 SW Mt Si Blvd,North Bend,98045,(425) 831-2122,Washington,WA,United States
0,1 Safeway Location in ,Oak Harbor,1450 SW Erie St,Oak Harbor,98277,(360) 279-8828,Washington,WA,United States
0,2 Safeway Locations in ,Olympia,3215 Harrison Ave NW,Olympia,98502,(360) 956-3782,Washington,WA,United States
0,1 Safeway Location in ,Omak,607 Omache Dr,Omak,98841,(509) 826-3404,Washington,WA,United States
0,1 Safeway Location in ,Orting,215 Whitesell St NW,Orting,98360,(360) 893-0840,Washington,WA,United States
0,2 Safeway Locations in ,Port Angeles,110 E 3rd St,Port Angeles,98362,(360) 457-0788,Washington,WA,United States
0,1 Safeway Location in ,Port Orchard,3355 Bethel Rd SE,Port Orchard,98366,(360) 874-8300,Washington,WA,United States
0,1 Safeway Location in ,Port Townsend,442 W Sims Way,Port Townsend,98368,(360) 385-2806,Washington,WA,United States
0,1 Safeway Location in ,Poulsbo,19245 10th Ave NE,Poulsbo,98370,(360) 394-0023,Washington,WA,United States
0,1 Safeway Location in ,Pullman,430 SE Bishop Blvd,Pullman,99163,(509) 334-0803,Washington,WA,United States
0,5 Safeway Locations in ,Puyallup,11501 Canyon Rd E,Puyallup,98373,(253) 536-4792,Washington,WA,United States
0,2 Safeway Locations in ,Redmond,15000 NE 24th St,Redmond,98052,(425) 869-7343,Washington,WA,United States
0,4 Safeway Locations in ,Renton,17230 140th Ave SE,Renton,98058,(425) 228-1740,Washington,WA,United States
0,1 Safeway Location in ,Richland,1803 George Washington Way,Richland,99354,(509) 946-9605,Washington,WA,United States
0,1 Safeway Location in ,Sammamish,630 228th Ave NE,Sammamish,98074,(425) 868-4000,Washington,WA,United States
0,18 Safeway Locations in ,Seattle,12318 15th Ave NE,Seattle,98125,(206) 306-0504,Washington,WA,United States
0,1 Safeway Location in ,Sequim,680F W Washington St,Sequim,98382,(360) 681-2905,Washington,WA,United States
0,1 Safeway Location in ,Shelton,600 Franklin St,Shelton,98584,(360) 426-9978,Washington,WA,United States
0,2 Safeway Locations in ,Shoreline,15332 Aurora Ave N,Shoreline,98133,(206) 364-0453,Washington,WA,United States
0,1 Safeway Location in ,Silverdale,2890 NW Bucklin Hill Rd,Silverdale,98383,(360) 692-4488,Washington,WA,United States
0,1 Safeway Location in ,Snohomish,1119 13th St,Snohomish,98290,(360) 568-7215,Washington,WA,United States
0,1 Safeway Location in ,Snoqualmie,34828 SE Douglas St,Snoqualmie,98065,(425) 831-0376,Washington,WA,United States
0,8 Safeway Locations in ,Spokane,10100 N Newport Hwy,Spokane,99218,(509) 465-2576,Washington,WA,United States
0,1 Safeway Location in ,Sunnyside,613 S 6th St,Sunnyside,98944,(509) 837-4610,Washington,WA,United States
0,9 Safeway Locations in ,Tacoma,1112 S M St,Tacoma,98405,(253) 627-8840,Washington,WA,United States
0,1 Safeway Location in ,Toppenish,711 W 1st Ave,Toppenish,98948,(509) 865-5700,Washington,WA,United States
0,1 Safeway Location in ,Tumwater,520 Cleveland Ave SE,Tumwater,98501,(360) 943-1830,Washington,WA,United States
0,8 Safeway Locations in ,Vancouver,13023 NE Hwy 99 Suite 1,Vancouver,98686,(360) 566-7980,Washington,WA,United States
0,2 Safeway Locations in ,Walla Walla,1600 Plaza Way,Walla Walla,99362,(509) 529-0470,Washington,WA,United States
0,1 Safeway Location in ,Washougal,3307 Evergreen Blvd Bldg 5,Washougal,98671,(360) 335-2000,Washington,WA,United States
0,1 Safeway Location in ,Wenatchee,501 N Miller St,Wenatchee,98801,(509) 663-5336,Washington,WA,United States
0,1 Safeway Location in ,Woodinville,19150 NE Woodinville Duvall Rd,Woodinville,98077,(425) 788-9150,Washington,WA,United States
0,1 Safeway Location in ,Woodland,1725 Pacific Ave,Woodland,98674,(360) 225-4370,Washington,WA,United States
0,5 Safeway Locations in ,Yakima,1610 W Lincoln Ave,Yakima,98902,(509) 248-4274,Washington,WA,United States
0,1 Safeway Location in ,Yelm,1109 Yelm Ave E,Yelm,98597,(360) 458-8830,Washington,WA,United States
0,1 Safeway Location in ,Cheyenne,700 S Greeley Hwy,Cheyenne,82007,(307) 635-7877,Wyoming,WY,United States
0,1 Safeway Location in ,Douglas,1900 E Richards St,Douglas,82633,(307) 358-3446,Wyoming,WY,United States
0,1 Safeway Location in ,Lander,1165 W Main St,Lander,82520,(307) 332-3636,Wyoming,WY,United States
0,1 Safeway Location in ,Laramie,554 N 3rd St,Laramie,82072,(307) 721-5107,Wyoming,WY,United States
0,1 Safeway Location in ,Wheatland,1307 16th St,Wheatland,82201,(307) 322-4530,Wyoming,WY,United States
