,source,title,address_line,city,postal_code,ph_no,state_name,state_code,country
0,Shaw's ,Ashland,301 Pond St,Ashland,01721,(508) 881-5125,Massachusetts,MA,United States
0,Shaw's ,Auburn,368 Southbridge St,Auburn,01501,(508) 832-0440,Massachusetts,MA,United States
0,Shaw's ,Beverly,71 Dodge St,Beverly,01915,(978) 232-9104,Massachusetts,MA,United States
0,Shaw's ,Braintree,125 Pearl St,Braintree,02184,(781) 228-4406,Massachusetts,MA,United States
0,Shaw's ,West Brockton,641 Belmont St,Brockton,02301,(508) 588-7746,Massachusetts,MA,United States
0,Shaw's ,East Brockton,715 Crescent St,Brockton,02302,(508) 583-2581,Massachusetts,MA,United States
0,Shaw's ,Burlington,180 A Cambridge St,Burlington,01803,(781) 221-3002,Massachusetts,MA,United States
0,Shaw's ,Canton,95 Washington St,Canton,02021,(781) 828-1446,Massachusetts,MA,United States
0,Shaw's ,Carver,100 N Main St,Carver,02330,(508) 866-2168,Massachusetts,MA,United States
0,Shaw's ,Clinton,1175 Main St,Clinton,01510,(978) 368-0306,Massachusetts,MA,United States
0,Shaw's ,Cohasset,739 Chief Justice Cushing Hwy,Cohasset,02025,(781) 383-2315,Massachusetts,MA,United States
0,Shaw's ,Dartmouth,15 State Rd,Dartmouth,02747,(508) 993-9995,Massachusetts,MA,United States
0,Shaw's ,East Boston,246 Border St,East Boston,02128,(617) 567-4116,Massachusetts,MA,United States
0,Shaw's ,East Falmouth,137 Tea Ticket Hwy,East Falmouth,02536,(508) 548-4033,Massachusetts,MA,United States
0,Shaw's ,North Fall River,4171 N Main St,Fall River,02720,(508) 677-0940,Massachusetts,MA,United States
0,Shaw's ,Franklin,255 E Central St,Franklin,02038,(508) 520-6880,Massachusetts,MA,United States
0,Shaw's ,Gloucester - Eastern Avenue,127 Eastern Ave,Gloucester,01930,(978) 281-4844,Massachusetts,MA,United States
0,Shaw's ,Gloucester - Railroad Ave,7 Railroad Ave,Gloucester,01930,(978) 283-2601,Massachusetts,MA,United States
0,Shaw's ,Groton,760 A Boston Rd,Groton,01450,(978) 448-0419,Massachusetts,MA,United States
0,Shaw's ,Hanover,35 Columbia Rd,Hanover,02339,(781) 826-2864,Massachusetts,MA,United States
0,Shaw's ,Hanson,476 Liberty St,Hanson,02341,(781) 293-3008,Massachusetts,MA,United States
0,Shaw's ,Harwich,18 Sisson Rd,Harwich Port,02646,(508) 432-3433,Massachusetts,MA,United States
0,Shaw's ,Hudson Towne Center,201 Washington St,Hudson,01749,(978) 562-4549,Massachusetts,MA,United States
0,Shaw's ,Hyannis Mall,1070 Iyannough Rd,Hyannis,02601,(508) 775-7611,Massachusetts,MA,United States
0,Shaw's ,Hyannis,625 W Main St,Hyannis,02601,(508) 775-3421,Massachusetts,MA,United States
0,Shaw's ,Hyde Park,1377 Hyde Park Ave,Hyde Park,02136,(617) 364-9375,Massachusetts,MA,United States
0,Shaw's ,Ipswich,146 High St,Ipswich,01938,(978) 356-8451,Massachusetts,MA,United States
0,Shaw's ,Mansfield,390 West St,Mansfield,02048,(508) 339-3987,Massachusetts,MA,United States
0,Shaw's ,Medfield,230 Main St,Medfield,02052,(508) 359-8713,Massachusetts,MA,United States
0,Shaw's ,Medway,65 Main St,Medway,02053,(508) 533-0606,Massachusetts,MA,United States
0,Shaw's ,Melrose,34 Essex St,Melrose,02176,(781) 665-8512,Massachusetts,MA,United States
0,Shaw's ,"Milford, MA",93 Prospect St,Milford,01757,(508) 478-4519,Massachusetts,MA,United States
0,Shaw's ,Newburyport,45 Storey Ave,Newburyport,01950,(978) 462-7121,Massachusetts,MA,United States
0,Shaw's ,North Attleboro,125 Robert Toner Blvd,North Attleboro,02763,(508) 643-2259,Massachusetts,MA,United States
0,Shaw's ,Easton,690 Depot St,North Easton,02356,(508) 238-0165,Massachusetts,MA,United States
0,Shaw's ,Norwood,134 Nahatan St,Norwood,02062,(781) 762-0610,Massachusetts,MA,United States
0,Shaw's ,Orleans,9 West Rd,Orleans,02653,(508) 240-1021,Massachusetts,MA,United States
0,Shaw's ,Peabody,114-128 Essex Center Dr,Peabody,01960,(978) 532-5434,Massachusetts,MA,United States
0,Shaw's ,Cedarville,2260 State Rd,Plymouth,02360,(508) 833-2975,Massachusetts,MA,United States
0,Shaw's ,Randolph,121 Memorial Pkwy,Randolph,02368,(781) 963-6995,Massachusetts,MA,United States
0,Shaw's ,Raynham,300 New State Hwy,Raynham,02767,(508) 822-5660,Massachusetts,MA,United States
0,Shaw's ,"Salem, MA",11 Traders Way,Salem,01970,(978) 741-8660,Massachusetts,MA,United States
0,Shaw's ,Sharon,780 S Main St,Sharon,02067,(781) 784-5995,Massachusetts,MA,United States
0,Shaw's ,Shrewsbury,50 Boston Turnpike Rd,Shrewsbury,01545,(508) 797-1126,Massachusetts,MA,United States
0,Shaw's ,South Yarmouth,1108 State Road,South Yarmouth,02664,(508) 394-0995,Massachusetts,MA,United States
0,Shaw's ,Stow,155 Great Rd,Stow,01775,(978) 897-5140,Massachusetts,MA,United States
0,Shaw's ,Sturbridge,178 Main St,Sturbridge,01566,(508) 347-3003,Massachusetts,MA,United States
0,Shaw's ,Sudbury,509 Boston Post Rd,Sudbury,01776,(978) 443-7066,Massachusetts,MA,United States
0,Shaw's ,Wakefield,134 Water St,Wakefield,01880,(781) 245-0032,Massachusetts,MA,United States
0,Shaw's ,Waltham,130 River St,Waltham,02453,(781) 647-5341,Massachusetts,MA,United States
0,Shaw's ,Wareham,127 Marion Rd,Wareham,02571,(508) 295-7813,Massachusetts,MA,United States
0,Shaw's ,Weymouth,610 Middle St,Weymouth,02189,(781) 331-5108,Massachusetts,MA,United States
0,Shaw's ,Northbridge,1177 Providence Rd,Whitinsville,01588,(508) 234-0457,Massachusetts,MA,United States
0,Shaw's ,Worcester - Gold Star,14 W Boylston St,Worcester,01605,(508) 852-5833,Massachusetts,MA,United States
0,Shaw's ,Worcester,68 Stafford St,Worcester,01603,(508) 755-5808,Massachusetts,MA,United States
0,Shaw's ,Auburn,600 Center St,Auburn,04210,(207) 784-6971,Maine,ME,United States
0,Shaw's ,Augusta,150 Western Ave,Augusta,04330,(207) 623-4520,Maine,ME,United States
0,Shaw's ,Bangor Main Street,353 Main St,Bangor,04401,(207) 942-9441,Maine,ME,United States
0,Shaw's ,Bath,1 Chandler Dr,Bath,04530,(207) 443-9179,Maine,ME,United States
0,Shaw's ,Brunswick,147 Bath Rd,Brunswick,04011,(207) 721-9996,Maine,ME,United States
0,Shaw's ,Dover-Foxcroft,1073 W Main St,Dover Foxcroft,04426,(207) 564-3500,Maine,ME,United States
0,Shaw's ,Ellsworth,175 High St,Ellsworth,04605,(207) 667-2293,Maine,ME,United States
0,Shaw's ,Falmouth,251 US Hwy 1,Falmouth,04105,(207) 781-6581,Maine,ME,United States
0,Shaw's ,Freeport,200 Lower Main St,Freeport,04032,(207) 865-0094,Maine,ME,United States
0,Shaw's ,Lewiston,27 E Ave,Lewiston,04240,(207) 784-6900,Maine,ME,United States
0,Shaw's ,Westgate,1364 Congress St,Portland,04102,(207) 774-7661,Maine,ME,United States
0,Shaw's ,Northgate,91 Auburn St,Portland,04103,(207) 797-4304,Maine,ME,United States
0,Shaw's ,Rockland,235 Camden St,Rockland,04841,(207) 594-8615,Maine,ME,United States
0,Shaw's ,Saco,4 Scammon St Suite 10,Saco,04072,(207) 284-9666,Maine,ME,United States
0,Shaw's ,Sanford,1364 Main St,Sanford,04073,(207) 490-5309,Maine,ME,United States
0,Shaw's ,Scarborough,417 Payne Rd,Scarborough,04074,(207) 883-2443,Maine,ME,United States
0,Shaw's ,Millcreek,180 Waterman Dr,South Portland,04106,(207) 799-8149,Maine,ME,United States
0,Shaw's ,Waterville,251 Kennedy Memorial Dr,Waterville,04901,(207) 873-6224,Maine,ME,United States
0,Shaw's ,Westbrook,31 Main St,Westbrook,04092,(207) 857-9299,Maine,ME,United States
0,Shaw's ,North Windham,770 Roosevelt Trail,Windham,04062,(207) 892-5159,Maine,ME,United States
0,Shaw's ,Wiscasset,670 Bath Rd,Wiscasset,04578,(207) 882-8424,Maine,ME,United States
0,Shaw's ,Laconia,96 Daniel Webster Hwy,Belmont,03220,(603) 524-3941,New Hampshire,NH,United States
0,Shaw's ,North Conway,1150 Eastman Rd,Center Conway,03813,(603) 356-5471,New Hampshire,NH,United States
0,Shaw's ,Concord Heights,20 D'amante Dr,Concord,03301,(603) 228-1440,New Hampshire,NH,United States
0,Shaw's ,Concord Fort Eddy Rd,20 Fort Eddy Rd,Concord,03301,(603) 228-0770,New Hampshire,NH,United States
0,Shaw's ,Derry,55 Crystal Ave,Derry,03038,(603) 432-9592,New Hampshire,NH,United States
0,Shaw's ,Dover,851 Central Ave,Dover,03820,(603) 749-5389,New Hampshire,NH,United States
0,Shaw's ,Gilford,1400 Lakeshore Dr,Gilford,03249,(603) 528-2929,New Hampshire,NH,United States
0,Shaw's ,Hillsborough,276 W Main St,Hillsborough,03244,(603) 464-5110,New Hampshire,NH,United States
0,Shaw's ,Hooksett,1328 Hooksett Rd,Hooksett,03106,(603) 623-8846,New Hampshire,NH,United States
0,Shaw's ,Lancaster,199 Main St,Lancaster,03584,(603) 788-4065,New Hampshire,NH,United States
0,Shaw's ,Littleton,625 Meadow St,Littleton,03561,(603) 444-1017,New Hampshire,NH,United States
0,Shaw's ,Londonderry,1 Orchard View Dr,Londonderry,03053,(603) 432-8846,New Hampshire,NH,United States
0,Shaw's ,North Merrimack,570 Daniel Webster Hwy,Merrimack,03054,(603) 424-3759,New Hampshire,NH,United States
0,Shaw's ,Merrimack,7 Continental Blvd,Merrimack,03054,(603) 429-0714,New Hampshire,NH,United States
0,Shaw's ,"Milford, NH",586 Nashua St,Milford,03055,(603) 672-3336,New Hampshire,NH,United States
0,Shaw's ,Royal Ridge,213 Daniel Webster Hwy,Nashua,03060,(603) 891-1649,New Hampshire,NH,United States
0,Shaw's ,Nashua Market Place,300 Main St,Nashua,03060,(603) 579-6966,New Hampshire,NH,United States
0,Shaw's ,Newport,48 John Stark Hwy,Newport,03773,(603) 863-4173,New Hampshire,NH,United States
0,Shaw's ,North Hampton,33 Lafayette Rd Unit 4,North Hampton,03862,(603) 964-4662,New Hampshire,NH,United States
0,Shaw's ,Peterborough,135 Dublin Rd,Peterborough,03458,(603) 924-9192,New Hampshire,NH,United States
0,Shaw's ,Plaistow,4 Plaistow Rd,Plaistow,03865,(603) 382-0489,New Hampshire,NH,United States
0,Shaw's ,Stratham,100 Shaws Ln,Stratham,03885,(603) 773-9994,New Hampshire,NH,United States
0,Shaw's ,Walpole,32 Ames Plaza Ln #441,Walpole,03608,(603) 756-3771,New Hampshire,NH,United States
0,Shaw's ,West Lebanon,10 Benning Dr,West Lebanon,03784,(603) 298-0388,New Hampshire,NH,United States
0,Shaw's ,Windham,43 Indian Rock Rd,Windham,03087,(603) 432-2607,New Hampshire,NH,United States
0,Shaw's ,Woodsville,15 Forest St,Woodsville,03785,(603) 747-3461,New Hampshire,NH,United States
0,Shaw's ,Barrington,186 County Rd,Barrington,02806,(401) 245-5882,Rhode Island,RI,United States
0,Shaw's ,Cranston,8 Chapel View Blvd,Cranston,02920,(401) 464-8388,Rhode Island,RI,United States
0,Shaw's ,East Providence,585 Taunton Ave,East Providence,02914,(401) 434-0029,Rhode Island,RI,United States
0,Shaw's ,Middletown,71 E Main Rd,Middletown,02842,(401) 848-7560,Rhode Island,RI,United States
0,Shaw's ,North Providence,15 Smithfield Rd,North Providence,02904,(401) 353-2075,Rhode Island,RI,United States
0,Shaw's ,Riverside,1050 Willet Ave,Riverside,02915,(401) 433-3180,Rhode Island,RI,United States
0,Shaw's ,Wakefield,160 Old Tower Hill Rd,Wakefield,02879,(401) 792-9888,Rhode Island,RI,United States
0,Shaw's ,Lakewood,320 Warwick Ave,Warwick,02888,(401) 941-4553,Rhode Island,RI,United States
0,Shaw's ,Berlin Corners,160 Paine Turnpike N,Berlin,05602,(802) 223-2652,Vermont,VT,United States
0,Shaw's ,Bristol,7 Prince Ln,Bristol,05443,(802) 453-4865,Vermont,VT,United States
0,Shaw's ,"South Burlington, VT",570 Shelburne Rd,Burlington,05401,(802) 860-2255,Vermont,VT,United States
0,Shaw's ,Colchester VT,66 Mountain View,Colchester,05446,(802) 654-7803,Vermont,VT,United States
0,Shaw's ,Derby,4340 US Rt 5,Derby,05829,(802) 334-8466,Vermont,VT,United States
0,Shaw's ,Fair Haven,195 Old Rt 22A,Fair Haven,05743,(802) 265-8100,Vermont,VT,United States
0,Shaw's ,Ludlow,213 Main St,Ludlow,05149,(802) 228-8468,Vermont,VT,United States
0,Shaw's ,Manchester,64 Equinox Terrace,Manchester Center,05255,(802) 362-4447,Vermont,VT,United States
0,Shaw's ,Middlebury,8 Washington St,Middlebury,05753,(802) 388-0930,Vermont,VT,United States
0,Shaw's ,Montpelier,2 Main St,Montpelier,05602,(802) 223-7587,Vermont,VT,United States
0,Shaw's ,Poultney,55 Depot St,Poultney,05764,(802) 287-4387,Vermont,VT,United States
0,Shaw's ,Randolph,127 VT Hwy 12s,Randolph,05060,(802) 728-3584,Vermont,VT,United States
0,Shaw's ,Springfield,2 Chester Rd,Springfield,05156,(802) 885-8450,Vermont,VT,United States
0,Shaw's ,Stowe,751 Maple St,Stowe,05672,(802) 253-4793,Vermont,VT,United States
0,Shaw's ,Vergennes,115c Monkton Rd,Vergennes,05491,(802) 877-3418,Vermont,VT,United States
0,Shaw's ,Waitsfield,27 Mad River Canoe Rd,Waitsfield,05673,(802) 496-5330,Vermont,VT,United States
0,Shaw's ,Waterbury,820 Waterbury Stowe Rd,Waterbury,05676,(802) 241-4113,Vermont,VT,United States
0,Shaw's ,"Williston, VT",71 Boxwood St,Williston,05495,(802) 878-9770,Vermont,VT,United States
0,Shaw's ,Wilmington,97 E Main St,Wilmington,05363,(802) 464-2161,Vermont,VT,United States
